name,url,image,area,address,contact,latitude,longitude
赤嵌里活動中心,http://tnda.tainan.gov.tw/acthouse/actpage.asp?mainid=215449DF-A922-46D0-B166-7A191619AEA3,http://tnda.tainan.gov.tw/warehouse/A20000/2011053001.jpg,中西區,臺南市中西區觀亭街76號,0972047555,22.997204,120.205776
漳洲、海澄社區活動中心,http://tnda.tainan.gov.tw/acthouse/actpage.asp?mainid=3F85886C-C1B0-4522-AEE4-041CD841D0E0,http://tnda.tainan.gov.tw/warehouse/B70000/DSC00530.JPG,佳里區,臺南市佳里區漳洲里4鄰204號,蘇里長0933339700,23.179888,120.154687
幸福社區活動中心,http://tnda.tainan.gov.tw/acthouse/actpage.asp?mainid=471F642B-C0E4-4004-A57A-81914A0DBD9C,http://tnda.tainan.gov.tw/warehouse/A50000/幸福社區活動中心.jpg,安南區,臺南市安南區府安路6段85號,06-2589905,23.0189702665479,120.188425
州南社區活動中心,http://tnda.tainan.gov.tw/acthouse/actpage.asp?mainid=4ACEE99F-7A35-4B89-BF8B-48F445C923B2,http://tnda.tainan.gov.tw/warehouse/A50000/州南社區活動中心.jpg,安南區,臺南市安南區安和路4段537巷46號,06-3556639,23.0629000763679,120.218218
龍崎區石𥕢里民活動中心,http://tnda.tainan.gov.tw/acthouse/actpage.asp?mainid=57944CDD-516A-4AD0-ACA8-0CEF7B1FF7F3,http://tnda.tainan.gov.tw/warehouse/D50000/100_2163.JPG,龍崎區,臺南市龍崎區石𥕢里4鄰刺仔崙13-3號,0910869520,22.9552653380552,120.40551879382
崙頂里活動中心,http://tnda.tainan.gov.tw/acthouse/actpage.asp?mainid=BDC128A4-42AC-4797-8701-DF9732339DFF,http://tnda.tainan.gov.tw/warehouse/D30000/崙頂里.jpg,歸仁區,臺南市歸仁區崙頂街38號,2302582,22.958491,120.29665
龍崎區大坪里民活動中心,http://tnda.tainan.gov.tw/acthouse/actpage.asp?mainid=E4674B33-2394-4F5F-A3EA-96DD8D7F6506,http://tnda.tainan.gov.tw/warehouse/D50000/100_3120.JPG,龍崎區,臺南市龍崎區大坪里37之2號,0919113833,22.9516394807429,120.35650437941
大埕里活動中心,http://tnda.tainan.gov.tw/acthouse/actpage.asp?mainid=82B605F2-4D8E-4372-A241-E4669A48640B,http://tnda.tainan.gov.tw/warehouse/B20000/clip_image002(3).jpg,麻豆區,臺南市麻豆區大埕里16鄰大同街26號之2,06-5721937,23.1863892202211,120.246224427223
田寮里活動中心,http://tnda.tainan.gov.tw/acthouse/actpage.asp?mainid=F77FE305-2F79-4E4D-BAEA-AF7D465D5B74,http://tnda.tainan.gov.tw/warehouse/C40000/IMG_1419(1).JPG,善化區,臺南市善化區田寮里六分寮68號之9,0912212448,23.1532084780038,120.304605388641
明興社區活動中心,http://tnda.tainan.gov.tw/acthouse/actpage.asp?mainid=FD3C1A4F-8510-48EB-B8F3-3EBA71B017C4,http://tnda.tainan.gov.tw/warehouse/A10000/明興1.jpg,南區,臺南市南區德興路88號,06-2630855,22.965690519128,120.192395
彰南里活動中心,http://tnda.tainan.gov.tw/acthouse/actpage.asp?mainid=BD3C5EA7-E6D5-4FC1-A922-574EC6F59B06,http://tnda.tainan.gov.tw/warehouse/A10000/彰南里外觀照-1.jpg,南區,台南市南區新建路12號,0929370119,22.967073,120.18543
開南里活動中心,http://tnda.tainan.gov.tw/acthouse/actpage.asp?mainid=4F56E1B1-EAC5-4F4E-B3A7-9B173C961249,http://tnda.tainan.gov.tw/warehouse/A10000/正面2533.JPG,南區,臺南市南區開南里新建路48號,0936387064,22.969893,120.185274
鯤鯓里活動中心,http://tnda.tainan.gov.tw/acthouse/actpage.asp?mainid=573B44E8-A7CA-4203-9F04-41BBAA0D06DE,http://tnda.tainan.gov.tw/warehouse/A10000/鯤鯓外觀.JPG,南區,臺南市南區鯤鯓路66巷7號,0933673557,22.959286,120.184732
南華里活動中心,http://tnda.tainan.gov.tw/acthouse/actpage.asp?mainid=51DFED74-4249-4571-9560-B62522E73515,http://tnda.tainan.gov.tw/warehouse/A10000/南華外觀.JPG,南區,臺南市南區中華南路2段400巷2弄29號,0929-521-073,22.961936,120.19461
大恩里活動中心,http://tnda.tainan.gov.tw/acthouse/actpage.asp?mainid=6D4C1989-D827-41AD-AEF7-048769007E59,http://tnda.tainan.gov.tw/warehouse/A10000/016大恩.JPG,南區,臺南市南區大同路二段750巷186號,2909200,22.976852,120.212313
南都里活動中心,http://tnda.tainan.gov.tw/acthouse/actpage.asp?mainid=90EF7B9F-742F-46A1-AFA3-16BF2DDF1715,http://tnda.tainan.gov.tw/warehouse/A10000/P1000202.JPG,南區,臺南市南區中華南路二段247之2號,0956-759968,22.961445,120.187074
新生里活動中心,http://tnda.tainan.gov.tw/acthouse/actpage.asp?mainid=C5052754-F935-4A26-A16E-06DAD61C7439,http://tnda.tainan.gov.tw/warehouse/A10000/014新生.JPG,南區,臺南市南區大同路2段136巷5弄12號,2138966,22.978308,120.212323
明亮里活動中心,http://tnda.tainan.gov.tw/acthouse/actpage.asp?mainid=E0778B51-D966-4D52-AF6E-42CF611409E6,http://tnda.tainan.gov.tw/warehouse/A10000/DSC03571.JPG,南區,臺南市南區新都路396號,06-2616382,22.967181,120.194671
日新里活動中心,http://tnda.tainan.gov.tw/acthouse/actpage.asp?mainid=2D2BCD0D-9DBC-4C95-AF8D-0518DA796C3F,http://tnda.tainan.gov.tw/warehouse/A10000/012日新.JPG,南區,臺南市利南街136號,0921019303,22.97126,120.188256
竹溪里活動中心,http://tnda.tainan.gov.tw/acthouse/actpage.asp?mainid=C5C1241A-327B-4229-9369-A518E7213EB1,http://tnda.tainan.gov.tw/warehouse/A10000/untitled.bmp,南區,臺南市南區竹溪里健康路一段113巷51弄1號,0933355577,22.979273,120.209431
灣裡聯合里活動中心,http://tnda.tainan.gov.tw/acthouse/actpage.asp?mainid=EEE4C2AE-6A07-4FBA-96F5-003262C245A0,http://tnda.tainan.gov.tw/warehouse/A10000/77.jpg,南區,臺南市南區灣裡路67號,06-2627799,22.932209,120.180997
再興里活動中心,http://tnda.tainan.gov.tw/acthouse/actpage.asp?mainid=01EE2617-ED7F-4F69-8E9E-D55D9BCF73DB,http://tnda.tainan.gov.tw/warehouse/A10000/09再興.jpg,南區,臺南市南區金華路2段236號,2911327,22.98102,120.191684
新昌里活動中心,http://tnda.tainan.gov.tw/acthouse/actpage.asp?mainid=CB77B511-F29F-4221-8CE8-3D4DCE7782A6,http://tnda.tainan.gov.tw/warehouse/A10000/08.JPG,南區,臺南市南區府緯街136號,2281148,22.983889,120.195891
府南里活動中心,http://tnda.tainan.gov.tw/acthouse/actpage.asp?mainid=96B9344C-7A99-410D-9A96-A3089E434D23,http://tnda.tainan.gov.tw/warehouse/A10000/07府南.JPG,南區,臺南市南區永成路三段529號,2651402,22.968603,120.195392
大成里活動中心,http://tnda.tainan.gov.tw/acthouse/actpage.asp?mainid=FB054B6E-B303-4B52-B157-34255B79F611,http://tnda.tainan.gov.tw/warehouse/A10000/大成里活動中心.jpg,南區,臺南市南區西門路一段312巷37號2樓,2631946,22.977428,120.199993
廣州里活動中心,http://tnda.tainan.gov.tw/acthouse/actpage.asp?mainid=6C2B6DA8-993D-483E-A053-49BF44F18D51,http://tnda.tainan.gov.tw/warehouse/A10000/123.JPG,南區,臺南市南區健民街2號,2237359,22.983257,120.194272
文南里活動中心,http://tnda.tainan.gov.tw/acthouse/actpage.asp?mainid=0FD89D6C-BDF8-4D57-BB2A-017EF6867C9D,http://tnda.tainan.gov.tw/warehouse/A10000/04文南.JPG,南區,臺南市南區建南路154號,2635310,22.985049,120.190186
光明里活動中心,http://tnda.tainan.gov.tw/acthouse/actpage.asp?mainid=BA78A6C6-4AFF-43C8-B183-0EDE9AE3C30C,http://tnda.tainan.gov.tw/warehouse/A10000/02光明.JPG,南區,臺南市南區新建路17巷13號,0932706098,22.973545,120.185908
建南里活動中心,http://tnda.tainan.gov.tw/acthouse/actpage.asp?mainid=BD5D88AA-59D8-4554-B471-DD281326B049,http://tnda.tainan.gov.tw/warehouse/A10000/01建南.JPG,南區,臺南市南區興隆路83號,0912126880,22.95879,120.193215
文華社區活動中心,http://tnda.tainan.gov.tw/acthouse/actpage.asp?mainid=D40AA975-A3DF-48B6-9BD8-77530AE54B1A,http://tnda.tainan.gov.tw/warehouse/A10000/文華3.jpg,南區,臺南市南區永華路一段275號,06-2654447,22.9887338221408,120.191671219574
白雪社區活動中心,http://tnda.tainan.gov.tw/acthouse/actpage.asp?mainid=AF664016-59FE-4977-A61D-4A5D8A8362DB,http://tnda.tainan.gov.tw/warehouse/A10000/白雪2.jpg,南區,臺南市南區鹽埕路157號,06-2617623,22.9690091323175,120.188629
再興社區活動中心,http://tnda.tainan.gov.tw/acthouse/actpage.asp?mainid=FFBEA90F-1E8C-4A5E-B3DC-110909BA314F,http://tnda.tainan.gov.tw/warehouse/A10000/再興1.jpg,南區,臺南市南區三官路176巷5弄19號,06-2910126,22.9812706164944,120.193891
金華社區活動中心,http://tnda.tainan.gov.tw/acthouse/actpage.asp?mainid=4D7AA062-1FFE-4D17-BBA1-5F3264BD69B9,http://tnda.tainan.gov.tw/warehouse/A10000/金華2.jpg,南區,臺南市南區慶南街201號,06-2635357,22.978825455537,120.190073
鯤鯓社區活動中心,http://tnda.tainan.gov.tw/acthouse/actpage.asp?mainid=73C2A909-14EB-4615-BF79-FA9C35EE6E31,http://tnda.tainan.gov.tw/warehouse/A10000/鯤鯓1.jpg,南區,臺南市南區鯤鯓路165號,06-2961408,22.961905,120.169595
國宅社區活動中心,http://tnda.tainan.gov.tw/acthouse/actpage.asp?mainid=00789C41-8003-4E2C-8DAA-209954ECD7F8,http://tnda.tainan.gov.tw/warehouse/A10000/國宅2.jpg,南區,臺南市南區金華路2段33巷81號,06-2631259,22.977068,120.188555
喜樹聯合社區活動中心,http://tnda.tainan.gov.tw/acthouse/actpage.asp?mainid=A2102086-E314-4BF8-991C-5C0E30BD03AA,http://tnda.tainan.gov.tw/warehouse/A10000/喜樹3.jpg,南區,臺南市南區喜樹路181號,06-2962134,22.9410213230704,120.178104
田寮社區活動中心,http://tnda.tainan.gov.tw/acthouse/actpage.asp?mainid=0394B12F-10F5-4457-B049-D039EFD441B4,http://tnda.tainan.gov.tw/warehouse/A10000/田寮1.jpg,南區,臺南市南區夏林路379號,06-2646946,22.976686046731,120.195741
永寧社區活動中心,http://tnda.tainan.gov.tw/acthouse/actpage.asp?mainid=0B1E0D12-A55B-4CE3-8F9D-35E5FC32FDFA,http://tnda.tainan.gov.tw/warehouse/A10000/永寧1.jpg,南區,臺南市南區灣裡路263巷41號,06-2624638,22.9272876728206,120.183412
新興社區活動中心,http://tnda.tainan.gov.tw/acthouse/actpage.asp?mainid=BBD33D72-FE5A-427A-A107-DD9C7DA6EBCE,http://tnda.tainan.gov.tw/warehouse/A10000/新興1.jpg,南區,臺南市南區新興路22號,06-2646610,22.979236,120.196424
大忠大林社區活動中心,http://tnda.tainan.gov.tw/acthouse/actpage.asp?mainid=BA4940B6-94B2-491F-B5BC-4328F7B24B72,http://tnda.tainan.gov.tw/warehouse/A10000/大忠大林2.jpg,南區,臺南市大同路2段482巷133弄15號,06-2151444,22.9730450970564,120.212534
明德社區活動中心,http://tnda.tainan.gov.tw/acthouse/actpage.asp?mainid=AC7CA557-ADBA-4C9D-8985-04F60476AE1B,http://tnda.tainan.gov.tw/warehouse/A10000/明德3.jpg,南區,臺南市南區大成路1段61巷32號,06-2610722,22.9749345368986,120.201081
梅花里活動中心,http://tnda.tainan.gov.tw/acthouse/actpage.asp?mainid=C2B29A45-646E-4A05-8E2D-2D930F13AFFA,http://tnda.tainan.gov.tw/warehouse/A50000/2013-10-31 12.00.31 (1).jpg,安南區,臺南市安南區安中路一段557巷25號,2568602,23.041696,120.199879
溪心里活動中心,http://tnda.tainan.gov.tw/acthouse/actpage.asp?mainid=2030195C-243E-456F-8B56-183F74FA5F66,http://tnda.tainan.gov.tw/warehouse/A50000/溪心.bmp,安南區,台南市安南區功安一街162號,2567085,23.049584,120.180186
西埔里活動中心,http://tnda.tainan.gov.tw/acthouse/actpage.asp?mainid=75F1D915-4059-4663-9487-A906DDAD29E8,http://tnda.tainan.gov.tw/warehouse/D00000/P1231387.JPG,南化區,台南市南化區西埔里58之1號,06-5771513#104,23.0326600736979,120.468690484222
小腳腿多功能活動中心,http://tnda.tainan.gov.tw/acthouse/actpage.asp?mainid=870BF0B4-2014-49B3-B93A-50CCE704E4EB,http://tnda.tainan.gov.tw/warehouse/A90000/DSC01090.JPG,柳營區,台南市柳營區篤農里6鄰小腳腿226-1號,06-6230159,185052.821,2576511.159
太康里活動中心,http://tnda.tainan.gov.tw/acthouse/actpage.asp?mainid=3FDE21EB-22F3-4952-A36A-0F3FF181610F,http://tnda.tainan.gov.tw/warehouse/A90000/DSC01085.JPG,柳營區,臺南市柳營區太康里113號,06-6223334,23.289918,120.32924
柳營聯合活動中心,http://tnda.tainan.gov.tw/acthouse/actpage.asp?mainid=F539CE06-3690-4426-A30F-52C9CE612E5E,http://tnda.tainan.gov.tw/warehouse/A90000/DSC01149.JPG,柳營區,台南市東昇里中山西路二段19巷35號,06-6223577,179306.325,2575411.564
仁德里活動中心,http://tnda.tainan.gov.tw/acthouse/actpage.asp?mainid=311A6D0F-4518-4D20-BE45-B8100355ECC4,http://tnda.tainan.gov.tw/warehouse/D20000/仁德村.JPG,仁德區,臺南市仁德區仁德里23鄰文心路138號,2707946,22.972864,120.241083
營頭活動中心,http://tnda.tainan.gov.tw/acthouse/actpage.asp?mainid=04E2BDBC-2002-449A-99D8-B43FF774F162,http://tnda.tainan.gov.tw/warehouse/C50000/IMG_7939.JPG,新市區,台南市新市區大營里213號,(06)599-6983,23.1011881129107,120.311134227539
汴頭里中山堂,http://tnda.tainan.gov.tw/acthouse/actpage.asp?mainid=788C4031-BEAD-48B7-95F1-CBF35ACF68D1,http://tnda.tainan.gov.tw/warehouse/A80000/汴公照.JPG,白河區,臺南市白河區汴頭里9鄰內枋林22號,6855102*26,193917.681,2585051.908
內角里中山堂,http://tnda.tainan.gov.tw/acthouse/actpage.asp?mainid=C2D57A30-CCDC-4219-BC9A-F3BA346CF638,http://tnda.tainan.gov.tw/warehouse/A80000/IMG_0191.JPG,白河區,臺南市白河區內角里2鄰內角30號,6855102*26,23.397514,120.439158
草店里中山堂,http://tnda.tainan.gov.tw/acthouse/actpage.asp?mainid=D6182525-82F9-4B2A-8A75-59ABBB31D1DB,http://tnda.tainan.gov.tw/warehouse/A80000/IMG_0188.JPG,白河區,臺南市白河區草店里3鄰草店29-1號,6855102*26,23.393235,120.439415
玉山社區活動中心,http://tnda.tainan.gov.tw/acthouse/actpage.asp?mainid=E2B76AB2-5C07-4462-9490-405A26E0984A,http://tnda.tainan.gov.tw/warehouse/C10000/玉山社區活動中心外觀3.JPG,將軍區,臺南市將軍區玉山里10鄰玉山79之5號,0926653188,23.210099,120.118419
成功里活動中心,http://tnda.tainan.gov.tw/acthouse/actpage.asp?mainid=6E8E803F-6074-4E60-BF1B-2B99B0537B1B,http://tnda.tainan.gov.tw/warehouse/A30000/成功里.bmp,北區,台南市中華北路二段237號之1,06-2525126,23.021646,120.205499
永福小西三民里活動中心,http://tnda.tainan.gov.tw/acthouse/actpage.asp?mainid=744E9F4C-A5E0-4D98-8210-44193E701B54,http://tnda.tainan.gov.tw/warehouse/A20000/01(6).jpg,中西區,臺南市中西區府前路一段258號,0918636187,22.990019,120.200433
中坑里活動中心,http://tnda.tainan.gov.tw/acthouse/actpage.asp?mainid=46E3A282-B360-4B35-9E43-C6AA2DF67396,http://tnda.tainan.gov.tw/warehouse/D00000/DSC04514.JPG,南化區,台南市南化區中坑里38之6號,06-5771513#104,23.0459119435269,120.450247423279
林安社區活動中心,http://tnda.tainan.gov.tw/acthouse/actpage.asp?mainid=615D3A88-5539-4DC0-A5C2-1281397BEF37,http://tnda.tainan.gov.tw/warehouse/B10000/P1010142.JPG,東山區,臺南市東山區林安里32-1號,0920338158,23.283302,120.428276
照興社區活動中心,http://tnda.tainan.gov.tw/acthouse/actpage.asp?mainid=6B47DFC9-ED4E-4C7A-AB9E-6679F77F3D05,http://tnda.tainan.gov.tw/warehouse/C90000/DSCF0382.JPG,楠西區,臺南市楠西區照興里興南14-2號,06-5751951,23.1863799384361,120.476081949738
灣丘社區活動中心,http://tnda.tainan.gov.tw/acthouse/actpage.asp?mainid=8A6E243D-E555-433E-ADB2-6F39BEC89AC4,http://tnda.tainan.gov.tw/warehouse/C90000/灣丘-活.JPG,楠西區,臺南市楠西區灣丘里灣丘11-3號,06-5753187  0910789708,23.1814809889454,120.504639394318
臺南市東山區大客里活動中心,http://tnda.tainan.gov.tw/acthouse/actpage.asp?mainid=56CBB4C3-D28E-4540-84AE-43419C3A9AB1,http://tnda.tainan.gov.tw/warehouse/B10000/CIMG0813.JPG,東山區,臺南市東山區大客里1鄰5之1號,6801879,23.313707,120.420876
龍崎區牛埔里民活動中心,http://tnda.tainan.gov.tw/acthouse/actpage.asp?mainid=282150D0-4594-483A-9096-5CBEA0A59780,http://tnda.tainan.gov.tw/warehouse/D50000/IMG_4534.JPG,龍崎區,臺南市龍崎區牛埔里2鄰21號,06-5947194,22.931938,120.409696459
下營地區民眾活動中心,http://tnda.tainan.gov.tw/acthouse/actpage.asp?mainid=A32572F0-29D1-4882-9841-90CC7A54EB88,http://tnda.tainan.gov.tw/warehouse/B30000/下營民眾活動中心-正面.jpg,下營區,臺南市下營區大孝街1號,6792971,23.141698,120.251273
佳化里活動中心,http://tnda.tainan.gov.tw/acthouse/actpage.asp?mainid=50F1C7C1-8026-46A9-B9AA-B75CC158D5D9,http://tnda.tainan.gov.tw/warehouse/B70000/正門.JPG,佳里區,臺南市佳里區佳化里36-2號,7262459,23.188147,120.196452
三榮社區活動中心,http://tnda.tainan.gov.tw/acthouse/actpage.asp?mainid=83EC7647-8539-4A34-8D7B-F32A6EF61869,http://tnda.tainan.gov.tw/warehouse/B10000/P1140072.JPG,東山區,臺南市東山區三榮里9鄰木柵45-3號,0922539838,23.3242018165611,120.385016166656
東河社區活動中心,http://tnda.tainan.gov.tw/acthouse/actpage.asp?mainid=8FD59A74-8B4E-4E29-A682-C3AA6586B8D9,http://tnda.tainan.gov.tw/warehouse/B10000/P1090044.JPG,東山區,臺南市東山區東河里2鄰16-1號,06-6233817,23.298445,120.38269
頂田社區活動中心,http://tnda.tainan.gov.tw/acthouse/actpage.asp?mainid=398B9775-27A8-44E8-BEE6-1AE45BC4F0EE,http://tnda.tainan.gov.tw/warehouse/B10000/P1140079.JPG,東山區,臺南市東山區聖賢里頂窩50-4號,0939159918,23.309649,120.346417
田尾社區活動中心,http://tnda.tainan.gov.tw/acthouse/actpage.asp?mainid=6BD025A7-9318-4EE1-9A7C-48BDF8A7EDFB,http://tnda.tainan.gov.tw/warehouse/B10000/P1140087.JPG,東山區,臺南市東山區聖賢里田尾27-2號,0939927941,23.2551952562152,120.417150878906
南勢社區活動中心,http://tnda.tainan.gov.tw/acthouse/actpage.asp?mainid=2D8CD504-FAB3-4FB8-BBED-7585B837AFA9,http://tnda.tainan.gov.tw/warehouse/B10000/P1100066.JPG,東山區,臺南市東山區南勢里7鄰大洋66-4號,0963163867,23.141698,120.251273
青山社區活動中心,http://tnda.tainan.gov.tw/acthouse/actpage.asp?mainid=99EA40E5-AEEF-4A40-8791-F51D79E8996F,http://tnda.tainan.gov.tw/warehouse/B10000/P1100061.JPG,東山區,臺南市東山區青山里青山31-1號,0911882109,23.276016,120.488434
嶺南社區活動中心,http://tnda.tainan.gov.tw/acthouse/actpage.asp?mainid=B1AC26B9-3E46-45FE-A6DF-AF35198D87CB,http://tnda.tainan.gov.tw/warehouse/B10000/P1100051.JPG,東山區,臺南市東山區嶺南里牛稠子30-3號,0910977887,23.254244,120.435837
關山里活動中心,http://tnda.tainan.gov.tw/acthouse/actpage.asp?mainid=B45D8BA8-ADE8-42D9-8847-5C6E51DFE61D,http://tnda.tainan.gov.tw/warehouse/D00000/RIMG0018.JPG,南化區,臺南市南化區關山里84之3號,06-5771513#104,23.1672105487011,120.593692115066
中坑里中山堂,http://tnda.tainan.gov.tw/acthouse/actpage.asp?mainid=D9B0C383-6347-459D-A37A-3C7511D91DE4,http://tnda.tainan.gov.tw/warehouse/D00000/DSC04513.JPG,南化區,台南市南化區中坑里38之3號,06-5771513#102,23.0458378991318,120.450665847885
歸仁里活動中心,http://tnda.tainan.gov.tw/acthouse/actpage.asp?mainid=A41AD74E-58BE-4EA4-9283-EF2E5913C7BE,http://tnda.tainan.gov.tw/warehouse/D30000/歸仁里.jpg,歸仁區,臺南市歸仁區歸仁里忠孝北路221號,2304331,22.973428,120.296748
八甲里活動中心,http://tnda.tainan.gov.tw/acthouse/actpage.asp?mainid=BC58BDC0-3350-418F-BF2F-05CF7FD2A4D5,http://tnda.tainan.gov.tw/warehouse/D30000/八甲里.jpg,歸仁區,臺南市歸仁區八甲里大明三街7號,2392076,22.97662,120.296608
西埔里活動中心,http://tnda.tainan.gov.tw/acthouse/actpage.asp?mainid=C6AB6EDD-AD42-433C-B5D0-8DFD3F69891E,http://tnda.tainan.gov.tw/warehouse/D30000/西埔里.jpg,歸仁區,臺南市歸仁區保大路二段166號,2721530,22.9976130492807,120.286724
五妃社區活動中心,http://tnda.tainan.gov.tw/acthouse/actpage.asp?mainid=7DBDBAFE-E54F-4732-85E6-4CF3C68EEA78,http://tnda.tainan.gov.tw/warehouse/A20000/DSCF3845.jpg,中西區,臺南市中西區南門路237巷10號,2138733,22.983026,120.205008
法華社區活動中心,http://tnda.tainan.gov.tw/acthouse/actpage.asp?mainid=5A43A9C3-267B-4026-BC54-C7C5A0F88B5C,http://tnda.tainan.gov.tw/warehouse/A20000/DSCF4293.jpg,中西區,臺南市中西區府連路22號,0921-593777,22.982509,120.209721
永慶、啟智社區聯合活動中心,http://tnda.tainan.gov.tw/acthouse/actpage.asp?mainid=E4B29F42-A735-4142-9804-E16F006B9028,http://tnda.tainan.gov.tw/warehouse/A20000/DSCF3813.jpg,中西區,臺南市中西區忠義路2段4號,2257657,22.990886,120.202598
中頭、民生社區活動中心,http://tnda.tainan.gov.tw/acthouse/actpage.asp?mainid=F46847BA-3CE9-4AED-91F3-33D6E378D1DF,http://tnda.tainan.gov.tw/warehouse/A20000/DSCF3878.jpg,中西區,臺南市中西區保安路201號,0929767263,22.990302,120.197421
民主社區活動中心,http://tnda.tainan.gov.tw/acthouse/actpage.asp?mainid=1CAEE752-ECBC-48F2-8F6C-43C3C607DB62,http://tnda.tainan.gov.tw/warehouse/A20000/untitled(4).bmp,中西區,臺南市中西區府前路2段233號,2259571,22.991901,120.190901
大涼社區活動中心,http://tnda.tainan.gov.tw/acthouse/actpage.asp?mainid=6CD277EB-41F7-441F-9800-9BDAC8D41F57,http://tnda.tainan.gov.tw/warehouse/A20000/大涼正門.jpg,中西區,臺南市中西區府前路2段258巷55號,0932715721,22.993057,120.190839
龍盛社區活動中心,http://tnda.tainan.gov.tw/acthouse/actpage.asp?mainid=C410822A-C2AB-459D-96F3-DCF0A01F9A6B,http://tnda.tainan.gov.tw/warehouse/A20000/DSC01951.jpg,中西區,臺南市中西區民權路3段232號,06-2267151,22.9967918375168,120.200158776505
西湖社區活動中心,http://tnda.tainan.gov.tw/acthouse/actpage.asp?mainid=5810C25F-4774-4DBA-B7DB-826E64064B90,http://tnda.tainan.gov.tw/warehouse/A20000/untitled(1).bmp,中西區,臺南市中西區湖美街60巷31號,0931-912566,23.001355,120.181093
溪墘里活動中心,http://tnda.tainan.gov.tw/acthouse/actpage.asp?mainid=0A5FD775-0B0D-4F82-AEC3-88D76AA96BC8,http://tnda.tainan.gov.tw/warehouse/A50000/影像050.jpg,安南區,台南市海佃路一段372巷50號,0921991383,23.028664399298,120.190895
媽祖宮社區活動中心（舊）,http://tnda.tainan.gov.tw/acthouse/actpage.asp?mainid=DAEDC141-6239-439D-9761-51CB1D80BDA9,http://tnda.tainan.gov.tw/warehouse/A50000/媽祖宮社區活動中心(舊).JPG,安南區,臺南市安南區媽祖宮路252號,06-2841343,23.03878,120.12809
長安社區活動中心,http://tnda.tainan.gov.tw/acthouse/actpage.asp?mainid=C07FAEC4-56D3-497A-92C8-A21B34CF51DA,http://tnda.tainan.gov.tw/warehouse/A50000/長安社區活動中心.jpg,安南區,臺南市安南區長溪路3段378號,06-2475288,23.0687825568757,120.197094
海佃國安里聯合活動中心,http://tnda.tainan.gov.tw/acthouse/actpage.asp?mainid=B357CC09-6899-4E5E-8005-765CFBD4E09C,http://tnda.tainan.gov.tw/warehouse/A50000/海佃國安里活動中心.JPG,安南區,臺南市安南區郡安路六段111巷36弄2號,06-2594540,23.026592,120.185073
大宏王公社區活動中心,http://tnda.tainan.gov.tw/acthouse/actpage.asp?mainid=967E428C-41F2-4A34-A4E0-1F7DF953EAB0,http://tnda.tainan.gov.tw/warehouse/A60000/活動中心外觀照片.bmp,新營區,臺南市新營區民族路21-(60-63)號,6322015,23.310215274634,120.318236374855
西和社區活動中心,http://tnda.tainan.gov.tw/acthouse/actpage.asp?mainid=B9EDC363-C4D3-4635-BB78-58A1FC4684B4,http://tnda.tainan.gov.tw/warehouse/C10000/西和社區活動中心外觀.JPG,將軍區,臺南市將軍區西華里11鄰西華130之15號,06-7942815,23.195537,120.155204
北馬社區活動中心,http://tnda.tainan.gov.tw/acthouse/actpage.asp?mainid=4856A192-62AC-42C6-A26B-4A1C81B6E8AE,http://tnda.tainan.gov.tw/warehouse/C20000/100_4647.jpg,北門區,臺南市北門區錦湖里15鄰渡子頭154-1號,06-7862001,23.297541,120.170738
南溪社區活動中心,http://tnda.tainan.gov.tw/acthouse/actpage.asp?mainid=AC6957D2-50C2-4ECC-A5C9-20AEDC5B0294,http://tnda.tainan.gov.tw/warehouse/B10000/南溪里活動中心4.jpg,東山區,臺南市東山區南溪里2鄰二重溪14-11號,0928770895,23.2325612592292,120.600485229492
水雲社區活動中心,http://tnda.tainan.gov.tw/acthouse/actpage.asp?mainid=97A94A5C-BF8F-4D52-8FD3-2DA99A451ADB,http://tnda.tainan.gov.tw/warehouse/B10000/水雲里活動中心1.jpg,東山區,臺南市東山區水雲里29號,0932974929,23.273304,120.416512
溪北里活動中心,http://tnda.tainan.gov.tw/acthouse/actpage.asp?mainid=D8DBB09D-E8E4-4045-9419-E098D52BB097,http://tnda.tainan.gov.tw/warehouse/A50000/P1030897.JPG,安南區,台南市安南區文安街66號,0928171602,23.0278095635038,120.212931
天后里活動中心,http://tnda.tainan.gov.tw/acthouse/actpage.asp?mainid=7A8F757C-E184-4111-ABD5-80F415164575,http://tnda.tainan.gov.tw/warehouse/A20000/001(1).jpg,中西區,臺南市中西區新美街167號,06-2276839,22.998069,120.201402
六甲里活動中心,http://tnda.tainan.gov.tw/acthouse/actpage.asp?mainid=13F29808-F9CC-4E2F-8B9E-D1E7A5C55130,http://tnda.tainan.gov.tw/warehouse/D30000/六甲里.jpg,歸仁區,臺南市歸仁區六甲里民生十二街41號,2308998,22.9543173462101,120.279744888916
辜厝里活動中心,http://tnda.tainan.gov.tw/acthouse/actpage.asp?mainid=950E57BF-0D3A-4E5C-B1C9-0ECE8726DAD8,http://tnda.tainan.gov.tw/warehouse/D30000/辜厝里.jpg,歸仁區,臺南市歸仁區大順三街42號,2390323,22.964625161053,120.292109
大廟里活動中心,http://tnda.tainan.gov.tw/acthouse/actpage.asp?mainid=1DB79722-1E8E-44C8-A579-E2029F8DECE4,http://tnda.tainan.gov.tw/warehouse/D30000/大廟里活動中心外觀照.png,歸仁區,臺南市歸仁區大廟里19鄰大廟一街38巷20號,2711794,22.996464,120.27666
東西庄社區活動中心,http://tnda.tainan.gov.tw/acthouse/actpage.asp?mainid=263B96AF-FC8E-4D9D-9027-AEA5E2D3089A,http://tnda.tainan.gov.tw/warehouse/B50000/IMG_1439.JPG,官田區,臺南市官田區東庄里西庄125之2號,5791797,23.18,120.29
官田社區活動中心,http://tnda.tainan.gov.tw/acthouse/actpage.asp?mainid=2797A7D7-3234-47C6-B070-731E552B9F19,http://tnda.tainan.gov.tw/warehouse/B50000/IMG_1426.JPG,官田區,臺南市官田區官田里官田315號,0928787199,23.18,120.34
二鎮社區活動中心,http://tnda.tainan.gov.tw/acthouse/actpage.asp?mainid=8618E015-C04E-4DA6-A7FB-0BC6FE27AFB9,http://tnda.tainan.gov.tw/warehouse/B50000/IMG_1434.JPG,官田區,台南市官田區二鎮里68號之1,0928706558,23.21,120.33
渡頭社區活動中心,http://tnda.tainan.gov.tw/acthouse/actpage.asp?mainid=0534B716-E72D-4EFA-9BA3-23B2EC1629FF,http://tnda.tainan.gov.tw/warehouse/B50000/IMG_1422.JPG,官田區,臺南市官田區渡頭里2鄰渡子頭18號,0911551900,23.16,120.32
大崎社區活動中心,http://tnda.tainan.gov.tw/acthouse/actpage.asp?mainid=ECD28B8E-A971-4826-B700-A91B71EAC07C,http://tnda.tainan.gov.tw/warehouse/B50000/IMG_0383.JPG,官田區,臺南市官田區大崎里4鄰大崎30之6號,0933624862,23.19,120.37
社子社區活動中心,http://tnda.tainan.gov.tw/acthouse/actpage.asp?mainid=8D4CE988-1E65-4569-AD63-000B4C461F02,http://tnda.tainan.gov.tw/warehouse/B50000/IMG_1039.JPG,官田區,臺南市官田區社子里2鄰社子11號,0937615178,23.193185,120.329890
鳳凰里活動中心,http://tnda.tainan.gov.tw/acthouse/actpage.asp?mainid=3544931C-5A60-4E29-93CF-E1531436A48A,http://tnda.tainan.gov.tw/warehouse/A50000/鳳凰里活動中心.jpg,安南區,臺南市安南區鳳凰里安中路一段700巷1號,06-2467013,23.034123,120.210515
新順里活動中心,http://tnda.tainan.gov.tw/acthouse/actpage.asp?mainid=10B4DA64-D470-4159-B45D-72AF74BF6F2D,http://tnda.tainan.gov.tw/warehouse/A50000/IMG_0994.JPG,安南區,台南市安南區新順里慶安路220巷5號,0933397003,23.045652239362,120.214126
茅埔活動中心,http://tnda.tainan.gov.tw/acthouse/actpage.asp?mainid=0C4C30BD-0D54-4AFB-9E17-4D793809FC4F,http://tnda.tainan.gov.tw/warehouse/D00000/CIMG8382.JPG,南化區,臺南市南化區玉山里132之3號,06-5771513#104,23.0853254515232,120.527749861099
姑爺里活動中心,http://tnda.tainan.gov.tw/acthouse/actpage.asp?mainid=0C9111B7-C6CB-4356-A0DD-904526BA4ED2,http://tnda.tainan.gov.tw/warehouse/A60000/DSC00116.JPG,新營區,臺南市新營區姑爺里22-1號,6564332,23.2677144532913,120.260034288361
埤寮里活動中心,http://tnda.tainan.gov.tw/acthouse/actpage.asp?mainid=99798AF4-359B-40E8-97C6-D7C755E8A59C,http://tnda.tainan.gov.tw/warehouse/A60000/DSC00046.JPG,新營區,臺南市新營區埤寮里5鄰埤寮12-1號,6320550,23.3292873155096,120.317501047607
六里聯合活動中心,http://tnda.tainan.gov.tw/acthouse/actpage.asp?mainid=CDD32AE3-07D6-413A-850E-4DCAC4F20C24,http://tnda.tainan.gov.tw/warehouse/B70000/P1070682 (大型).JPG,佳里區,臺南市佳里區東寧里佳東路327巷20號,7222127#238,23.159952,120.183186
河東農村社區活動中心,http://tnda.tainan.gov.tw/acthouse/actpage.asp?mainid=80AD8C3F-FA37-434F-B5E6-B86922BB98C0,http://tnda.tainan.gov.tw/warehouse/A80000/外觀(1).JPG,白河區,台南市白河區河東里5鄰糞箕湖80-19號,6855102*26,23.344117,120.432359
新東里活動中心,http://tnda.tainan.gov.tw/acthouse/actpage.asp?mainid=F65480EA-C2E3-40C8-903F-12C9E9CEC9CE,http://tnda.tainan.gov.tw/warehouse/A60000/DSC00043.JPG,新營區,臺南市新營區新東里10鄰東仁街10巷39號,6375526,23.3163078270686,120.328888957703
五興里活動中心,http://tnda.tainan.gov.tw/acthouse/actpage.asp?mainid=E918C89C-689A-464E-8833-719041B086A5,http://tnda.tainan.gov.tw/warehouse/A60000/DSC00120.JPG,新營區,臺南市新營區五興里五間厝114-1號,6581508,23.2742469421856,120.272509033066
南紙里活動中心,http://tnda.tainan.gov.tw/acthouse/actpage.asp?mainid=DFCCCB39-EF64-4471-8EC1-D4F9943D3DA6,http://tnda.tainan.gov.tw/warehouse/A60000/DSC00125.JPG,新營區,臺南市新營區南紙里10鄰南紙街80號,6565564,23.2996849594322,120.294227142822
角帶里活動中心,http://tnda.tainan.gov.tw/acthouse/actpage.asp?mainid=5FF37E72-3F24-4027-BDEB-B474D1817634,http://tnda.tainan.gov.tw/warehouse/A60000/DSC00113.JPG,新營區,台南市新營區角帶里5鄰角帶圍65-1號,6524816,23.2811094202945,120.265948156097
七股社區活動中心,http://tnda.tainan.gov.tw/acthouse/actpage.asp?mainid=B325D8F1-C34E-4663-B56E-88A676C47CE3,http://tnda.tainan.gov.tw/warehouse/C00000/DSC07852.JPG,七股區,臺南市七股區七股里103-1號,7873200,23.1346485782568,120.127424423841
三股社區活動中心,http://tnda.tainan.gov.tw/acthouse/actpage.asp?mainid=4F3874DD-F59B-46D4-91A0-CC3510F56E63,http://tnda.tainan.gov.tw/warehouse/C00000/CIMG3600.JPG,七股區,臺南市七股區三股里3鄰39號,7881373,23.0996470259449,120.118170099433
竹港社區活動中心,http://tnda.tainan.gov.tw/acthouse/actpage.asp?mainid=4BE43DF8-2EB9-4B67-8DA6-816151077648,http://tnda.tainan.gov.tw/warehouse/C00000/IMG_0806.JPG,七股區,臺南市七股區竹港里52-19號,7891732,23.1109144403585,120.171116502438
玉成社區活動中心,http://tnda.tainan.gov.tw/acthouse/actpage.asp?mainid=1EE5C0BD-1BAF-453E-9670-389F578B5DA6,http://tnda.tainan.gov.tw/warehouse/C00000/DSC07842.JPG,七股區,臺南市七股區玉成里17號,7871989,23.1372004040576,120.134285606024
後港社區活動中心,http://tnda.tainan.gov.tw/acthouse/actpage.asp?mainid=52618CED-C69D-41EF-8453-A1610161202F,http://tnda.tainan.gov.tw/warehouse/C00000/後港社區活動中心.JPG,七股區,臺南市七股區後港里港西13號,7941672,23.1848729855552,120.145043379458
看坪社區活動中心,http://tnda.tainan.gov.tw/acthouse/actpage.asp?mainid=118DF389-3066-423B-93DB-5CFAE9D7EDEF,http://tnda.tainan.gov.tw/warehouse/C00000/DSC07826(1).JPG,七股區,臺南市七股區看坪里45-1號,06-7895189,23.1272401281515,120.147586282404
篤加社區活動中心,http://tnda.tainan.gov.tw/acthouse/actpage.asp?mainid=CB484464-86D7-47E1-9ACD-CD52369CCBEE,http://tnda.tainan.gov.tw/warehouse/C00000/篤加文物館.jpg,七股區,臺南市七股區篤加里篤加47-7號,7225625,23.1593236624015,120.127678079757
樹林社區活動中心,http://tnda.tainan.gov.tw/acthouse/actpage.asp?mainid=24A71300-6D3D-417A-B136-C2A5DECCA6F6,http://tnda.tainan.gov.tw/warehouse/C00000/IMG_0801.JPG,七股區,臺南市七股區樹林里樹林５－８號,7891577,23.1144552473377,120.156257978365
大寮社區活動中心,http://tnda.tainan.gov.tw/acthouse/actpage.asp?mainid=DF0B99D3-FDFA-4DE0-A40D-3019E5BD6862,http://tnda.tainan.gov.tw/warehouse/C00000/IMG_0833.JPG,七股區,臺南市七股區大寮里大寮36-12號,7875039,23.1495092471083,120.152874808865
鹽埕社區活動中心,http://tnda.tainan.gov.tw/acthouse/actpage.asp?mainid=5DB17E09-05C1-4C4D-A2F6-A10B09ADD144,http://tnda.tainan.gov.tw/warehouse/C00000/IMG_0815(1).JPG,七股區,臺南市七股區鹽埕里鹽埕165-1號,7800174,23.151515,120.089098
中寮社區活動中心,http://tnda.tainan.gov.tw/acthouse/actpage.asp?mainid=6AB183E0-E251-4D33-BD41-A81A9C5E8173,http://tnda.tainan.gov.tw/warehouse/C00000/IMG_0821.JPG,七股區,臺南市七股區中寮里中寮63-2號,06-7800882,23.1533637073985,120.108448146972
西寮社區活動中心,http://tnda.tainan.gov.tw/acthouse/actpage.asp?mainid=CE5BAF7F-2766-46F8-A809-CF58089676D7,http://tnda.tainan.gov.tw/warehouse/C00000/IMG_0825.JPG,七股區,臺南市七股區西寮里1-3號,7800262,23.1704200074279,120.096992727732
大林社區活動中心,http://tnda.tainan.gov.tw/acthouse/actpage.asp?mainid=A6A44CC2-F50F-4C4F-AD0D-2E5C9E1FA789,http://tnda.tainan.gov.tw/warehouse/A80000/外觀(2).JPG,白河區,台南市白河區大林里2鄰檨子林20-16號,6855102*26,192850.003,2581597.366
東角里活動中心,http://tnda.tainan.gov.tw/acthouse/actpage.asp?mainid=83A84D78-07E1-45BC-8A64-AA8106683129,http://tnda.tainan.gov.tw/warehouse/B20000/DSCN5730.jpg,麻豆區,臺南市麻豆區東角里9鄰忠孝路44-1號,06-5718568,23.141698,120.251273
大德里活動中心,http://tnda.tainan.gov.tw/acthouse/actpage.asp?mainid=494E4044-A90B-4955-B63B-F4D462F61312,http://tnda.tainan.gov.tw/warehouse/A00000/0(3).jpg,東區,臺南市東區大德里立德十路30巷51號,06-2156402,22.978157,120.215205
仙草社區活動中心,http://tnda.tainan.gov.tw/acthouse/actpage.asp?mainid=BCF81A70-894C-4ECE-8773-30488888E1EC,http://tnda.tainan.gov.tw/warehouse/A80000/仙草活動中心1.JPG,白河區,台南市白河區仙草里7-5號,6855102*26,196147.864,2582614.225
潭頂社區活動中心,http://tnda.tainan.gov.tw/acthouse/actpage.asp?mainid=D8D89F0C-38B4-4620-A23A-F83134BA7899,http://tnda.tainan.gov.tw/warehouse/C50000/IMG_7938.JPG,新市區,臺南市新市區潭頂里261-1號,,23.0772703736015,120.324738704918
郡西里活動中心,http://tnda.tainan.gov.tw/acthouse/actpage.asp?mainid=FC28C1E4-34ED-4249-9E8A-5B5279060103,http://tnda.tainan.gov.tw/warehouse/A20000/01(1).jpg,中西區,臺南市中西區郡西里郡西路35號2樓,0932866855,22.989445,120.194075
崎內里活動中心,http://tnda.tainan.gov.tw/acthouse/actpage.asp?mainid=E0448BC8-EE03-401E-A129-D4CAB6E1057D,http://tnda.tainan.gov.tw/warehouse/A80000/崎1.JPG,白河區,臺南市白河區崎內里3鄰內崎內19-1號,6855102*26,23.382994,120.46829
大林里中山堂,http://tnda.tainan.gov.tw/acthouse/actpage.asp?mainid=81732D05-4D3E-41FB-AF8D-1449A27C0240,http://tnda.tainan.gov.tw/warehouse/A80000/DSCN2237.JPG,白河區,臺南市白河區大林里2鄰檨子林20之12號,6855102*26,192850.003,2581597.366
曲溪社區活動中心,http://tnda.tainan.gov.tw/acthouse/actpage.asp?mainid=80886DF9-A491-4011-8047-B72111801EF2,http://tnda.tainan.gov.tw/warehouse/B60000/曲溪社區活動中心（1）.jpg,大內區,臺南市大內區曲溪里51-2號,(06)5763874,23.143482,120.38674
環湖社區活動中心,http://tnda.tainan.gov.tw/acthouse/actpage.asp?mainid=62DC9757-6AE1-4B12-859E-B902575BACAD,http://tnda.tainan.gov.tw/warehouse/B60000/環湖社區活動中心（1）.jpg,大內區,臺南市大內區環湖里57號,(06)5760165,23.169268,120.426048
二溪社區活動中心,http://tnda.tainan.gov.tw/acthouse/actpage.asp?mainid=09998D7D-D21B-487B-8440-31CBA8160A6E,http://tnda.tainan.gov.tw/warehouse/B60000/二溪社區活動中心（1）.jpg,大內區,臺南市大內區二溪里198-1號,(06)5763779,23.126715,120.410896
頭社社區活動中心,http://tnda.tainan.gov.tw/acthouse/actpage.asp?mainid=B15BAD84-D0A3-45AB-9344-0AD564044945,http://tnda.tainan.gov.tw/warehouse/B60000/頭社社區活動中心（1）.jpg,大內區,臺南市大內區頭社里10-1號,(06)5765578,23.150951,120.384476
大內社區活動中心,http://tnda.tainan.gov.tw/acthouse/actpage.asp?mainid=29F81642-F9D2-47F9-A3CF-9B6D356BA67C,http://tnda.tainan.gov.tw/warehouse/B60000/大內社區活動中心（1）.jpg,大內區,臺南市大內區大內里63號,(06)5765176,23.118461,120.362049
石子瀨社區活動中心,http://tnda.tainan.gov.tw/acthouse/actpage.asp?mainid=4E04C13A-5F93-4143-96B2-B862A31E7007,http://tnda.tainan.gov.tw/warehouse/B60000/石子瀨社區活動中心（1）.jpg,大內區,臺南市大內區石城里114-66號,(06)5761341,23.126488,120.36377
將軍社區活動中心,http://tnda.tainan.gov.tw/acthouse/actpage.asp?mainid=5C1231C3-2E73-4021-BDAE-853F17EA52EA,http://tnda.tainan.gov.tw/warehouse/C10000/將軍社區活動中心外觀(1).JPG,將軍區,臺南市將軍區將貴里13鄰將榮20之1號,06-7945176,23.216876,120.137211
文元文成里聯合活動中心,http://tnda.tainan.gov.tw/acthouse/actpage.asp?mainid=EFE9234E-CACC-4812-B2CA-A096DB0DAED4,http://tnda.tainan.gov.tw/warehouse/A30000/文元文成.bmp,北區,台南市北區和緯路3段370號,06-2595189,23.009778,120.193881
一甲社區活動中心,http://tnda.tainan.gov.tw/acthouse/actpage.asp?mainid=2B6311CC-13C1-4555-93E2-7522AF4AABB1,http://tnda.tainan.gov.tw/warehouse/D20000/一甲村.JPG,仁德區,臺南市仁德區一甲里忠義路256號,2707946,22.976549,120.254822
大屯社區活動中心,http://tnda.tainan.gov.tw/acthouse/actpage.asp?mainid=651ABF80-784A-4195-AB9F-6497A84A67C8,http://tnda.tainan.gov.tw/warehouse/B30000/大屯1.JPG,下營區,臺南市下營區大屯寮23-2號,0937613851,23.23628,120.23826
蔦松腳活動中心,http://tnda.tainan.gov.tw/acthouse/actpage.asp?mainid=46FE173E-2F85-451C-BD45-E827017C0BC3,http://tnda.tainan.gov.tw/warehouse/D20000/P1010167.JPG,仁德區,臺南市仁德區上崙里上崙211-9號,2709311,22.934345,120.259369
新厝活動中心,http://tnda.tainan.gov.tw/acthouse/actpage.asp?mainid=B46EC1F1-B3CB-46FF-AFAA-F8499399CAE0,http://tnda.tainan.gov.tw/warehouse/A90000/DSC01143.JPG,柳營區,台南市柳營區神農里新厝18-1號,06-6232591,183061.859,2573042.335
西華社區活動中心,http://tnda.tainan.gov.tw/acthouse/actpage.asp?mainid=302E77CB-3656-4787-8DA7-B69B86D5D0A9,http://tnda.tainan.gov.tw/warehouse/C10000/西華社區活動中心外觀5.JPG,將軍區,臺南市將軍區西華里12鄰西華140號,06-7942693,23.195537,120.155204
忠寮社區活動中心,http://tnda.tainan.gov.tw/acthouse/actpage.asp?mainid=54B1DBC5-EA83-402E-BBF4-A4156A0D265C,http://tnda.tainan.gov.tw/warehouse/C10000/忠寮社區活動中心外觀.JPG,將軍區,臺南市將軍區苓和里14鄰忠寮12號,0932868680,23.2198627195746,120.161153423279
苓保社區活動中心,http://tnda.tainan.gov.tw/acthouse/actpage.asp?mainid=3FA5E1E8-C5B7-4DB8-814F-CA0298D3CD3B,http://tnda.tainan.gov.tw/warehouse/C10000/苓保社區活動中心外觀-更新.JPG,將軍區,臺南市將軍區保源里7鄰苓保66之25號,0937666357,23.209134,120.162817
馬沙溝濱海活動中心,http://tnda.tainan.gov.tw/acthouse/actpage.asp?mainid=DAC86CF2-82B4-462B-B0B3-089B6ED153B8,http://tnda.tainan.gov.tw/warehouse/C10000/馬沙溝外觀.JPG,將軍區,臺南市將軍區長沙里3鄰長沙24之30號,06-7931099,23.222007,120.095619
長榮社區活動中心,http://tnda.tainan.gov.tw/acthouse/actpage.asp?mainid=346021AA-F75B-4583-A03D-804C4A80F8FF,http://tnda.tainan.gov.tw/warehouse/C10000/長榮社區活動中心外觀8.JPG,將軍區,臺南市將軍區長榮里4鄰長榮51-4號,0932759337,23.192004,120.164965
港東里活動中心,http://tnda.tainan.gov.tw/acthouse/actpage.asp?mainid=3D1632F3-52A5-4B0C-8558-084712981D99,http://tnda.tainan.gov.tw/warehouse/B90000/DSC01606.JPG,西港區,臺南市西港區港東里烏竹林58之5號,0933628246,23.122934,120.215887
永樂里活動中心,http://tnda.tainan.gov.tw/acthouse/actpage.asp?mainid=6348B09B-0431-4548-9180-DF917C2330D9,http://tnda.tainan.gov.tw/warehouse/B90000/PB220026.JPG,西港區,臺南市西港區永樂里7鄰大塭寮59之35號,0933670079,23.1039797881211,120.178803359976
甲中里活動中心,http://tnda.tainan.gov.tw/acthouse/actpage.asp?mainid=4BF8F284-5967-45BC-8C58-3DF5891DA14B,http://tnda.tainan.gov.tw/warehouse/B30000/甲中里活動中心-正面.jpg,下營區,臺南市下營區甲中里12鄰16甲29-1號,6899827,23.283816,120.264359
安海里活動中心,http://tnda.tainan.gov.tw/acthouse/actpage.asp?mainid=283F87EF-6C1E-4E38-A8BD-24A3444D6270,http://tnda.tainan.gov.tw/warehouse/A20000/安海里活動中心.jpg,中西區,臺南市中西區環河街94號之4,0929-158613,22.995876,120.192395
仙草里活動中心,http://tnda.tainan.gov.tw/acthouse/actpage.asp?mainid=9358908F-2E2C-4EF2-9FAB-1A66D021B671,http://tnda.tainan.gov.tw/warehouse/A20000/01(5).jpg,中西區,臺南市中西區府緯街4巷6號,2149918,22.9840679378316,120.199406468868
南勢里活動中心,http://tnda.tainan.gov.tw/acthouse/actpage.asp?mainid=93C56218-27F8-4FB4-9E89-ABB8B433F1C4,http://tnda.tainan.gov.tw/warehouse/B20000/clip_image002(4).jpg,麻豆區,臺南市南勢里16鄰南勢36號之204,06-5721920,23.1835525587294,120.259254598618
後甲南聖社區聯合活動中心,http://tnda.tainan.gov.tw/acthouse/actpage.asp?mainid=1B1AE3F0-A34E-400A-A825-F1476DBC547A,http://tnda.tainan.gov.tw/warehouse/A00000/0(11).jpg,東區,臺南市東區裕農路878號,06-3311391,22.989709,120.242833
中西東安社區聯合活動中心,http://tnda.tainan.gov.tw/acthouse/actpage.asp?mainid=53BE2873-6977-4E8F-B530-CCC583A9C010,http://tnda.tainan.gov.tw/warehouse/A00000/untitled(2).bmp,東區,臺南市東區長榮路2段17號,06-2366187,22.988843,120.220317
泉南里活動中心,http://tnda.tainan.gov.tw/acthouse/actpage.asp?mainid=25376D5E-A218-41C0-86E2-F5E5EBF2F45D,http://tnda.tainan.gov.tw/warehouse/A00000/門面.JPG,東區,臺南市東區府連路326巷2號,06-2355566,22.984746,120.215482
崇明里活動中心,http://tnda.tainan.gov.tw/acthouse/actpage.asp?mainid=812B0645-145D-423F-A855-FB29D1AFABB6,http://tnda.tainan.gov.tw/warehouse/A00000/01.jpg,東區,臺南市東區中華東路三段569號,06-2670483,22.975069,120.224012
六甲里活動中心,http://tnda.tainan.gov.tw/acthouse/actpage.asp?mainid=16313041-92F8-43D7-98CD-55AA3E879781,http://tnda.tainan.gov.tw/warehouse/B40000/IMAG0065.jpg,六甲區,臺南市六甲區六甲里信義街238巷14弄17號1樓,6982028,23.229772,120.349501
西連里老人活動中心,http://tnda.tainan.gov.tw/acthouse/actpage.asp?mainid=1D12E011-ABFB-4F9E-8952-DDC575CDD0C4,http://tnda.tainan.gov.tw/warehouse/B30000/西連老人活動中心-正面照.JPG,下營區,臺南市下營區西連里西寮13-25號,6793325,23.208243,120.263332
岡林里活動中心,http://tnda.tainan.gov.tw/acthouse/actpage.asp?mainid=4CA68478-0CBB-4687-8D75-EAA5489FE2F8,http://tnda.tainan.gov.tw/warehouse/D10000/DSC00428.JPG,左鎮區,臺南市左鎮區岡林里31號,06-5730462,23.064324,120.389056
二寮里中山堂,http://tnda.tainan.gov.tw/acthouse/actpage.asp?mainid=FFE9725E-054C-468A-A5C1-CEC50D389983,http://tnda.tainan.gov.tw/warehouse/D10000/DSC00434(1).JPG,左鎮區,臺南市左鎮區二寮里27號,06-5730039,22.997319,120.41145
澄山里活動中心,http://tnda.tainan.gov.tw/acthouse/actpage.asp?mainid=3CA1D6AD-45DA-485C-8F46-F989097D2FB8,http://tnda.tainan.gov.tw/warehouse/D10000/DSC00476.JPG,左鎮區,臺南市左鎮區澄山里77-2號,06-5732896,23.029982,120.391846
內庄社區活動中心,http://tnda.tainan.gov.tw/acthouse/actpage.asp?mainid=35CC3026-82B2-466D-9E2C-CB2D52AF31FD,http://tnda.tainan.gov.tw/warehouse/D10000/DSC00425(2).JPG,左鎮區,臺南市左鎮區內庄里37號,06-5731526,23.0436,120.423416
左鎮社區活動中心,http://tnda.tainan.gov.tw/acthouse/actpage.asp?mainid=A5BD57A1-C611-447A-A113-9BF4CAF2CAC8,http://tnda.tainan.gov.tw/warehouse/D10000/左鎮里1(1).JPG,左鎮區,臺南縣左鎮區左鎮里39號,06-5731433,23.050781,120.407028
榮和里活動中心,http://tnda.tainan.gov.tw/acthouse/actpage.asp?mainid=9F891AEF-764D-4C1A-8837-C988CD2C8645,http://tnda.tainan.gov.tw/warehouse/D10000/DSC00436(1).JPG,左鎮區,臺南市左鎮區榮和里60-7號,06-5732821,23.141698,120.251273
光和里活動中心,http://tnda.tainan.gov.tw/acthouse/actpage.asp?mainid=2510DD2B-6FA7-43C6-B7D4-77FEC4A55950,http://tnda.tainan.gov.tw/warehouse/D10000/DSC00474(1).JPG,左鎮區,臺南市左鎮區光和里51-10號,06-5732705,23.063927,120.375465
廣安里中山堂,http://tnda.tainan.gov.tw/acthouse/actpage.asp?mainid=FCAE40C1-1FA4-4A15-BEF9-7DCE66AC285B,http://tnda.tainan.gov.tw/warehouse/A80000/DSCN0431.JPG,白河區,臺南市白河區廣安里枋子林43之1號,6855102*26,23.389917,120.402766
蘇林蘇厝社區民眾活動中心,http://tnda.tainan.gov.tw/acthouse/actpage.asp?mainid=C69FF653-C12F-4BCB-BFD3-70BC8999DC24,http://tnda.tainan.gov.tw/warehouse/C60000/P1040497.JPG,安定區,臺南市安定區蘇厝里456-1號,06-5922450,23.1296494362306,120.250919275147
六德里活動中心,http://tnda.tainan.gov.tw/acthouse/actpage.asp?mainid=69BBE31A-CD5D-46B9-8ED3-019F647C840D,http://tnda.tainan.gov.tw/warehouse/C40000/PC190072(1).JPG,善化區,臺南市善化區六德里六分寮227-1號,0918770877,23.151602,120.299703
牛庄社區活動中心,http://tnda.tainan.gov.tw/acthouse/actpage.asp?mainid=AC79B68F-1442-4EC6-BFCC-A638F31A4A9C,http://tnda.tainan.gov.tw/warehouse/C40000/DSC00843.JPG,善化區,臺南市善化區牛庄里牛庄1-1號,06-5837226分機213,23.1375273107539,120.323787505341
大潭里頂潭活動中心,http://tnda.tainan.gov.tw/acthouse/actpage.asp?mainid=6DAC80CF-FD12-459D-A45A-A4D3D8CB8B33,http://tnda.tainan.gov.tw/warehouse/C00000/DSC00005.JPG,七股區,臺南市七股區大潭里頂潭32-1號,7941118,23.1926269517649,120.130409324169
嘉南里活動中心,http://tnda.tainan.gov.tw/acthouse/actpage.asp?mainid=5A7924E7-199C-490A-91ED-3795EBF3DF63,http://tnda.tainan.gov.tw/warehouse/B50000/IMG_1013.JPG,官田區,臺南市官田區嘉南里3鄰嘉南22號,06-6984186,23.141698,120.251273
社子里六双活動中心,http://tnda.tainan.gov.tw/acthouse/actpage.asp?mainid=075F4C8B-BABC-4A9D-96EE-982C3D2F073F,http://tnda.tainan.gov.tw/warehouse/B50000/IMG_1006.JPG,官田區,臺南市官田區社子里六双16之5號,06-6901384,23.1664599107414,120.365380268509
海南里活動中心,http://tnda.tainan.gov.tw/acthouse/actpage.asp?mainid=6F5F7383-F4C3-4225-AE7A-021501E248B6,http://tnda.tainan.gov.tw/warehouse/A50000/1.bmp,安南區,台南市府安路七段1巷2號,2588013,23.013915,120.182034
公塭里活動中心,http://tnda.tainan.gov.tw/acthouse/actpage.asp?mainid=91E0EB3E-084B-4416-830B-28101074179A,http://tnda.tainan.gov.tw/warehouse/A50000/P1010727.JPG,安南區,台南市安南區育英街116號,06-2870498,23.0651034026428,120.160013
淵東里活動中心,http://tnda.tainan.gov.tw/acthouse/actpage.asp?mainid=F760A283-241E-49CA-A286-D10423E4BDB4,http://tnda.tainan.gov.tw/warehouse/A50000/untitled(1).bmp,安南區,臺南市安南區淵東里智安二街70號,06-2551529,23.052013,120.177386
淵中里活動中心,http://tnda.tainan.gov.tw/acthouse/actpage.asp?mainid=5229EB87-263A-4718-B09C-6100DA577E74,http://tnda.tainan.gov.tw/warehouse/A50000/IMG_4559.JPG,安南區,臺南市安南區淵中里安中路三段381號,06-2561701,23.0498140132209,120.174837
學東里活動中心,http://tnda.tainan.gov.tw/acthouse/actpage.asp?mainid=03B6A292-4367-4343-A0C1-58F1A6B616C2,http://tnda.tainan.gov.tw/warehouse/A50000/DSC02091.JPG,安南區,台南市安南區公學路六段661號,2872927,23.0792961912342,120.144833
安西里活動中心,http://tnda.tainan.gov.tw/acthouse/actpage.asp?mainid=7FDD0BBD-35D2-44D8-B8BE-30638B035CCF,http://tnda.tainan.gov.tw/warehouse/A50000/P1030895.JPG,安南區,台南市安西路101號,06-2461234,23.0330271861243,120.209036
菁豊里活動中心,http://tnda.tainan.gov.tw/acthouse/actpage.asp?mainid=D26BC1E4-E5C7-484D-8BB0-4F305440A98C,http://tnda.tainan.gov.tw/warehouse/B00000/照片 023.jpg,後壁區,臺南市後壁區菁豊里74號,6621924,23.3767205412682,120.346226812103
安民社區活動中心,http://tnda.tainan.gov.tw/acthouse/actpage.asp?mainid=BE907030-517F-4891-A04A-2BA8838C9281,http://tnda.tainan.gov.tw/warehouse/A30000/安民社區活動中心.jpg,北區,臺南市北區海安路3段59號,06-2288999,23.002208,120.1992
竹圍里中山堂,http://tnda.tainan.gov.tw/acthouse/actpage.asp?mainid=A752FED6-A5F9-4333-8699-602290750682,http://tnda.tainan.gov.tw/warehouse/C80000/P1020849.JPG,玉井區,臺南市玉井區竹圍里武成街155巷7號,0972228312,23.131863,120.477898
總榮里活動中心,http://tnda.tainan.gov.tw/acthouse/actpage.asp?mainid=1780B27E-5361-471E-A05E-3A64F7DFE78B,http://tnda.tainan.gov.tw/warehouse/B20000/100_0923.jpg,麻豆區,臺南市總榮里3鄰總爺庄32號之1,0960056269,23.1808061421743,120.270092734694
礁坑里活動中心,http://tnda.tainan.gov.tw/acthouse/actpage.asp?mainid=1EA16F90-35C0-43FF-9BD7-BFCBB9DF544C,http://tnda.tainan.gov.tw/warehouse/C30000/礁坑里153號.JPG,新化區,臺南市新化區礁坑里36崙153號,5903385,23.043118,120.366554
旭山里活動中心,http://tnda.tainan.gov.tw/acthouse/actpage.asp?mainid=53206955-8119-4F4C-8C74-37191383AB2F,http://tnda.tainan.gov.tw/warehouse/A90000/DSC01121.JPG,柳營區,臺南市柳營區旭山里山子腳9-1號,06-6233733,23.254843,120.403107
果毅里活動中心,http://tnda.tainan.gov.tw/acthouse/actpage.asp?mainid=69C67272-02FB-4782-BAE6-E66460AFA583,http://tnda.tainan.gov.tw/warehouse/A90000/DSC01128.jpg,柳營區,臺南市柳營區果毅里果毅後61-1號,06-6231239,184795.964,2572635.665
人和里農民活動中心,http://tnda.tainan.gov.tw/acthouse/actpage.asp?mainid=679FCD1F-C7C8-4125-BC80-18E5AA83338F,http://tnda.tainan.gov.tw/warehouse/A90000/DSC01080.JPG,柳營區,臺南市柳營區人和里柳營路三段420巷1弄2號,06-6225629,178908.197,2577274.796
海西里活動中心,http://tnda.tainan.gov.tw/acthouse/actpage.asp?mainid=83505929-31E5-4277-9CD5-8BED66EE55C8,http://tnda.tainan.gov.tw/warehouse/A50000/xO7m7tauRIwCEwMIxZ3EUQ.jpg,安南區,臺南市安南區海西里海環街186號,06-2569119,23.037832,120.184418
四草里活動中心,http://tnda.tainan.gov.tw/acthouse/actpage.asp?mainid=3EE69A88-5F4C-4319-B424-6EDB0268E8F5,http://tnda.tainan.gov.tw/warehouse/A50000/DSC04257.JPG,安南區,臺南市大眾路656號,06-2841285,23.0176684515476,120.128391
華興振興里聯合活動中心,http://tnda.tainan.gov.tw/acthouse/actpage.asp?mainid=8B428186-1586-41A8-886F-B9F56EFD9EE4,http://tnda.tainan.gov.tw/warehouse/A30000/華興振興聯合活動中心.bmp,北區,臺南市北區林森路三段181號,06-2086500,23.006473,120.224327
三德里活動中心,http://tnda.tainan.gov.tw/acthouse/actpage.asp?mainid=31961FC1-9A46-49A7-98B4-AFF5EF4F3097,http://tnda.tainan.gov.tw/warehouse/A30000/三德里.bmp,北區,臺南市北區長北街50號,0911712841,23.001118,120.204217
龍崎區龍船里活動中心,http://tnda.tainan.gov.tw/acthouse/actpage.asp?mainid=373677A5-271F-4819-837B-081002EF93AF,http://tnda.tainan.gov.tw/warehouse/D50000/Dsc01963.jpg,龍崎區,臺南市龍崎區龍船里2鄰苦苓湖10號,06-5947453,22.9444870404811,120.415316543655
嘉福里活動中心,http://tnda.tainan.gov.tw/acthouse/actpage.asp?mainid=BCC580D4-6073-4300-9DE1-D3E1A25419E5,http://tnda.tainan.gov.tw/warehouse/B70000/嘉福里.jpg,佳里區,臺南市佳里區嘉福里115號,0932779525,23.169315,120.150722
大竹里活動中心,http://tnda.tainan.gov.tw/acthouse/actpage.asp?mainid=30532EF3-DB0E-4A7E-A1A6-295EEC8F0929,http://tnda.tainan.gov.tw/warehouse/A80000/大竹外觀.JPG,白河區,臺南市白河區大竹里1鄰大排竹3號,6855102*26,23.368218,120.412432
甘宅里集會所,http://tnda.tainan.gov.tw/acthouse/actpage.asp?mainid=641475D1-E4F8-49CF-942C-7C307DF0025B,http://tnda.tainan.gov.tw/warehouse/A80000/CIMG2663.JPG,白河區,臺南市白河區甘宅里1鄰甘宅13號,6855102*26,23.381177,120.438948
王城西社區活動中心,http://tnda.tainan.gov.tw/acthouse/actpage.asp?mainid=65FE551F-55BB-4509-9BB3-A9FB5EA1E450,http://tnda.tainan.gov.tw/warehouse/A40000/王城西.bmp,安平區,臺南市安平區國勝路35巷17號,06-3915554,23.0016060787609,120.158685171604
昇安里中山堂,http://tnda.tainan.gov.tw/acthouse/actpage.asp?mainid=830EAF01-2615-4706-AA13-96B5991790AB,http://tnda.tainan.gov.tw/warehouse/A80000/昇1.JPG,白河區,臺南市白河區昇安里4鄰三間厝51-6號,6855102*26,23.364497,120.434218
大南進學里活動中心,http://tnda.tainan.gov.tw/acthouse/actpage.asp?mainid=CD589682-CA37-4A67-BE74-8E5EEE3CF702,http://tnda.tainan.gov.tw/warehouse/A20000/DSCI0106.JPG,中西區,臺南市中西區南寧街47號之29,0919-855755,22.98498,120.200934
通興社區活動中心,http://tnda.tainan.gov.tw/acthouse/actpage.asp?mainid=C0A86DE6-7B7D-4326-966C-B5F82DA014DD,http://tnda.tainan.gov.tw/warehouse/B70000/DSC00475.JPG,佳里區,臺南市佳里區通興里8鄰埔頂25號,0971075589,23.145194,120.154874
民安社區活動中心,http://tnda.tainan.gov.tw/acthouse/actpage.asp?mainid=59ECC864-7439-4C11-A4C6-C64BDBD79230,http://tnda.tainan.gov.tw/warehouse/B70000/DSC00722.JPG,佳里區,臺南市佳里區民安里同安寮34-2號,0932759718,23.161984,120.192388
三協社區活動中心,http://tnda.tainan.gov.tw/acthouse/actpage.asp?mainid=AAB41D7A-6C36-471C-8937-9E60F914E646,http://tnda.tainan.gov.tw/warehouse/B70000/DSC00720.JPG,佳里區,臺南市佳里區三協里潭墘31號,0921504838,23.178123,120.202191
子龍社區活動中心,http://tnda.tainan.gov.tw/acthouse/actpage.asp?mainid=61B4BF91-9995-465A-B181-8D0A2BBDE9E4,http://tnda.tainan.gov.tw/warehouse/B70000/DSC00680.JPG,佳里區,臺南市佳里區子龍里9鄰子良廟40號,0932495748,23.176,120.209261
溪州里社區活動中心,http://tnda.tainan.gov.tw/acthouse/actpage.asp?mainid=795BCBBC-9E2B-4ED9-9E36-A45764008DCF,http://tnda.tainan.gov.tw/warehouse/B70000/DSC00609.JPG,佳里區,臺南市佳里區溪州里2-1號,7262058,23.20565,120.183465
營頂里社區活動中心,http://tnda.tainan.gov.tw/acthouse/actpage.asp?mainid=01F311B1-EDF0-485A-A21D-11E43F4149D6,http://tnda.tainan.gov.tw/warehouse/B70000/DSC00634.JPG,佳里區,臺南市佳里區營頂里3鄰27號,0937498593,23.198414,120.188544
禮化里社區活動中心,http://tnda.tainan.gov.tw/acthouse/actpage.asp?mainid=18202798-A569-4E29-B56F-A083757B2A19,http://tnda.tainan.gov.tw/warehouse/B70000/DSC00552.JPG,佳里區,臺南市佳里區禮化里376-5號,7264286,23.191301,120.187848
頂廍社區活動中心,http://tnda.tainan.gov.tw/acthouse/actpage.asp?mainid=766FE62E-BD1B-4B6C-BF21-72DBA91B5D41,http://tnda.tainan.gov.tw/warehouse/B70000/DSC00508.JPG,佳里區,臺南市佳里區頂廍里10鄰117號,0910747629,23.172858,120.149757
虎山里社區活動中心,http://tnda.tainan.gov.tw/acthouse/actpage.asp?mainid=881869F1-5200-4A8F-88D9-5EB2494309A5,http://tnda.tainan.gov.tw/warehouse/A80000/P1000932.JPG,白河區,台南市白河區虎山里2鄰木屐寮28-5號,6855102*26,23.358056,120.454081
崁頭里中山堂,http://tnda.tainan.gov.tw/acthouse/actpage.asp?mainid=C465E51A-5BE0-4917-B46D-C7809B0A90CA,http://tnda.tainan.gov.tw/warehouse/A80000/DSCF0026.JPG,白河區,臺南市白河區崁頭里2鄰崁子頭19號,6855102*26,23.328628,120.416828
玉豐里中山堂,http://tnda.tainan.gov.tw/acthouse/actpage.asp?mainid=C6032251-4414-4768-B8A5-D90F8B486706,http://tnda.tainan.gov.tw/warehouse/A80000/DSCN2428.JPG,白河區,臺南市白河區玉豐里10鄰海豐厝86號,6855102*26,23.380739,120.416434
秀祐里中山堂,http://tnda.tainan.gov.tw/acthouse/actpage.asp?mainid=8B1B891E-2EEE-429B-8789-8AD97C1DED4C,http://tnda.tainan.gov.tw/warehouse/A80000/DSCN2421.JPG,白河區,臺南市白河區秀祐里2鄰頂秀祐30-1號,6855102*26,23.353193,120.401003
鹿耳社區活動中心,http://tnda.tainan.gov.tw/acthouse/actpage.asp?mainid=B5455C46-95C7-4276-9166-AFB9E0A33827,http://tnda.tainan.gov.tw/warehouse/A50000/DSC02822.JPG,安南區,臺南市安南區北汕尾2路800巷9弄95號,06-2840391,23.036786,120.129177
頂安社區活動中心,http://tnda.tainan.gov.tw/acthouse/actpage.asp?mainid=C4C23BBE-F2ED-46E9-9A08-BE6B0315DAD3,http://tnda.tainan.gov.tw/warehouse/A50000/頂安社區活動中心.jpg,安南區,臺南市安南區怡安路1段385巷42號,06-2477060,23.0424635490933,120.206775
漁光里活動中心,http://tnda.tainan.gov.tw/acthouse/actpage.asp?mainid=1120136C-B928-43C8-A4BD-E42E9A071B55,http://tnda.tainan.gov.tw/warehouse/A40000/大門.JPG,安平區,台南市安平區漁光路89巷39號之1,0927097660,22.976939,120.160027
建平里活動中心,http://tnda.tainan.gov.tw/acthouse/actpage.asp?mainid=6C345D3A-BAEC-4318-A81D-7F2C38DAE0BB,http://tnda.tainan.gov.tw/warehouse/A40000/untitled(5).bmp,安平區,台南市府前三街27號,2995542,22.9940554654795,120.185528067459
億載里活動中心,http://tnda.tainan.gov.tw/acthouse/actpage.asp?mainid=9FAB4A68-CC12-421C-9B4E-FBCE0ACA2091,http://tnda.tainan.gov.tw/warehouse/A40000/億載.bmp,安平區,台南市安平區光州1街29號,0935426402,22.986446,120.161922
怡平里活動中心,http://tnda.tainan.gov.tw/acthouse/actpage.asp?mainid=1A348D23-498D-47A9-9662-DA1A160AC921,http://tnda.tainan.gov.tw/warehouse/A40000/013.jpg,安平區,台南市安平區平通路366號2至3樓,0932704111,22.993046,120.178075
永吉里多功能活動中心,http://tnda.tainan.gov.tw/acthouse/actpage.asp?mainid=EB356566-75DB-4C5E-AD72-6BFA420C38A6,http://tnda.tainan.gov.tw/warehouse/C00000/永吉里活動中心.JPG,七股區,臺南市七股區永吉里1鄰永吉16之8號,7881815,23.099215,120.127129
平通里活動中心　,http://tnda.tainan.gov.tw/acthouse/actpage.asp?mainid=1E11201C-CAF8-42EE-B5E2-A7B114A7FD5D,http://tnda.tainan.gov.tw/warehouse/A40000/DSCF2357.JPG,安平區,台南市安平區平通路580巷102號,06-2971897,22.992432,120.180702
詔安里中山堂,http://tnda.tainan.gov.tw/acthouse/actpage.asp?mainid=6B572FFF-13F9-4005-9173-FFFB9C7E682C,http://tnda.tainan.gov.tw/warehouse/A80000/DSCN4259.JPG,白河區,臺南市白河區詔安里7鄰詔安厝77號,6855102*26,23.394856,120.409798
竹門里活動中心,http://tnda.tainan.gov.tw/acthouse/actpage.asp?mainid=44A8D189-53F9-4A79-A05B-E75CB3D0BE29,http://tnda.tainan.gov.tw/warehouse/A80000/DSCN2227.JPG,白河區,臺南市白河區竹門里9鄰竹子門113-5號,6855102*26,23.376944,120.444959
白河里活動中心,http://tnda.tainan.gov.tw/acthouse/actpage.asp?mainid=D1A6ADAF-9EF6-464F-9966-5A5E298A6001,http://tnda.tainan.gov.tw/warehouse/A80000/DSCN0439.JPG,白河區,臺南市白河區白河里康樂路2-18號,6855102*26,23.346101,120.415454
西賢里活動中心,http://tnda.tainan.gov.tw/acthouse/actpage.asp?mainid=96DD4D92-4B2D-483E-A348-9BFFBAAFEFAC,http://tnda.tainan.gov.tw/warehouse/A20000/DSCI0051.JPG,中西區,臺南市中西區民權路四段470號,06-2504254,22.9998583721352,120.172362235443
萬昌公正里活動中心,http://tnda.tainan.gov.tw/acthouse/actpage.asp?mainid=2253EF25-10A5-4483-8668-DB3DF826D522,http://tnda.tainan.gov.tw/warehouse/A20000/01(9).jpg,中西區,臺南市中西區青年路226巷20號,0933398017,22.990946,120.211073
建國里活動中心,http://tnda.tainan.gov.tw/acthouse/actpage.asp?mainid=176C1F79-82CB-410C-929A-CBD115BF45EC,http://tnda.tainan.gov.tw/warehouse/A20000/01(8).jpg,中西區,臺南市中西區永福路二段81巷1號,06-2283720,22.992946,120.200931
協進里活動中心,http://tnda.tainan.gov.tw/acthouse/actpage.asp?mainid=15772E36-DF49-4FEB-AFDF-DBEAFE6A1103,http://tnda.tainan.gov.tw/warehouse/A20000/01.jpg,中西區,臺南市中西區民權路三段447巷1號,0926214781,22.998683,120.18753
中正里活動中心,http://tnda.tainan.gov.tw/acthouse/actpage.asp?mainid=631B50BB-F0AF-42E2-8818-E1F8D6AD886F,http://tnda.tainan.gov.tw/warehouse/A20000/01(2).jpg,中西區,臺南市中西區國華街三段5號2樓、3樓,06-2273274,22.993513,120.197382
水仙里活動中心,http://tnda.tainan.gov.tw/acthouse/actpage.asp?mainid=6A02B7E1-CD64-4FEA-B1F3-5437CE42416C,http://tnda.tainan.gov.tw/warehouse/A20000/水仙里活動中心.jpg,中西區,臺南市中西區民權路3段57號,06-2220603,22.99658,120.198092
光賢里活動中心,http://tnda.tainan.gov.tw/acthouse/actpage.asp?mainid=02EA3F5C-9E4F-482C-BBB7-3455E7DECDFF,http://tnda.tainan.gov.tw/warehouse/A20000/01(7).jpg,中西區,臺南市中西區和善街98巷7號,0933611979,23.00291,120.189863
莊敬里活動中心,http://tnda.tainan.gov.tw/acthouse/actpage.asp?mainid=E0BD7FCB-6788-4E8F-8B11-139C56E9554A,http://tnda.tainan.gov.tw/warehouse/A00000/086[1].jpg,東區,臺南市東區莊敬路205巷23號,06-2355566,22.99697,120.232201
虎尾里活動中心,http://tnda.tainan.gov.tw/acthouse/actpage.asp?mainid=A6A20C5D-872D-4D10-8118-B578A3B34405,http://tnda.tainan.gov.tw/warehouse/A00000/0(3).bmp,東區,臺南市東區富農街一段188巷10弄7號,06-2688008,22.9817786219916,120.235373481159
裕聖里活動中心,http://tnda.tainan.gov.tw/acthouse/actpage.asp?mainid=75A6B1FE-C8F8-493B-8C00-124C0E4F7CB6,http://tnda.tainan.gov.tw/warehouse/A00000/裕聖0.bmp,東區,臺南市東區裕文路286號,06-3313958,22.982302,120.245074
和平里活動中心,http://tnda.tainan.gov.tw/acthouse/actpage.asp?mainid=75D195C2-3A14-402C-9E7C-8703FD2AE48D,http://tnda.tainan.gov.tw/warehouse/A00000/和平 .bmp,東區,臺南市東區文化路100號,06-2684072,22.976986,120.23192
自強里活動中心,http://tnda.tainan.gov.tw/acthouse/actpage.asp?mainid=D92DD3C9-4877-44DC-8859-D521C7D5E5FB,http://tnda.tainan.gov.tw/warehouse/A00000/活動中心正面(3).JPG,東區,臺南市東區富農街1段225號,06-2893486,22.983623,120.235256
路東里活動中心,http://tnda.tainan.gov.tw/acthouse/actpage.asp?mainid=371AC604-6031-49BB-A08B-AA30EDF244E8,http://tnda.tainan.gov.tw/warehouse/A00000/0(2).jpg,東區,臺南市東區大同路2段61巷5號,06-2156365,22.9796517711789,120.213278474869
裕農里活動中心,http://tnda.tainan.gov.tw/acthouse/actpage.asp?mainid=9D97C581-416C-484C-9C4D-6CAEF911265E,http://tnda.tainan.gov.tw/warehouse/A00000/0-1(2).jpg,東區,臺南市裕農里裕農路379號,06-2352866,22.987755,120.230394
東聖里活動中心,http://tnda.tainan.gov.tw/acthouse/actpage.asp?mainid=C87B6450-566A-49B0-9AEF-D94726345359,http://tnda.tainan.gov.tw/warehouse/A00000/活動中心正面.JPG,東區,臺南市東區中華東路二段133巷57弄34號,06-2688029,22.987115,120.233119
成大里活動中心,http://tnda.tainan.gov.tw/acthouse/actpage.asp?mainid=E072FE3D-E79E-44A1-A7C1-72BD531A6594,http://tnda.tainan.gov.tw/warehouse/A00000/大門.JPG,東區,臺南市東區大學路西段65-5號,06-2340478,22.996751,120.214876
新東里活動中心,http://tnda.tainan.gov.tw/acthouse/actpage.asp?mainid=AB8DBCB2-7B72-49B8-87D7-F4D39C3414D8,http://tnda.tainan.gov.tw/warehouse/A00000/0(12).jpg,東區,臺南市東區林森路二段48號,0935216887,22.986647,120.223165
衛國里活動中心,http://tnda.tainan.gov.tw/acthouse/actpage.asp?mainid=EDECAEA1-F788-495B-B8E9-3AE2326EAADB,http://tnda.tainan.gov.tw/warehouse/A00000/活動中心外觀.JPG,東區,臺南市東區衛國街114巷28號,06-2380867,22.9883673096875,120.224715
崇德里活動中心,http://tnda.tainan.gov.tw/acthouse/actpage.asp?mainid=B40738C4-A391-4352-8B24-413C830DF85C,http://tnda.tainan.gov.tw/warehouse/A00000/0(2).bmp,東區,臺南市東區崇德七街30巷2號,06-2674133,22.974976,120.22841
富裕里活動中心,http://tnda.tainan.gov.tw/acthouse/actpage.asp?mainid=198430FF-C19D-415D-A08C-9A7486FDEC53,http://tnda.tainan.gov.tw/warehouse/A00000/DSC00989.JPG,東區,臺南市東區東門路2段365巷35號,06-2345463,22.986396,120.219483
忠孝里活動中心,http://tnda.tainan.gov.tw/acthouse/actpage.asp?mainid=23001132-A5BD-4ECC-98AB-F38E3ED71390,http://tnda.tainan.gov.tw/warehouse/A00000/0(5).jpg,東區,臺南市東區中華東路三段498號,06-2608556,22.975069,120.224012
大智里活動中心,http://tnda.tainan.gov.tw/acthouse/actpage.asp?mainid=D364DBC3-5D6A-40CE-85A6-B3445723F15B,http://tnda.tainan.gov.tw/warehouse/A00000/01.bmp,東區,臺南市東區德東街90號,06-2690953,22.961589,120.230231
崇誨里活動中心,http://tnda.tainan.gov.tw/acthouse/actpage.asp?mainid=892ECE02-FC93-47D7-89A3-C211DE4B5FAC,http://tnda.tainan.gov.tw/warehouse/A00000/DSC07096.JPG,東區,臺南市東區林森路2段192巷15號,06-2344330,22.989778,120.224691
大同里活動中心,http://tnda.tainan.gov.tw/acthouse/actpage.asp?mainid=FEAB197F-6694-4DFD-8913-5E29CC6E5320,http://tnda.tainan.gov.tw/warehouse/A00000/0(1).jpg,東區,臺南市東區府連路182巷29號,06-2131225,22.9848939448505,120.212417
富強里活動中心,http://tnda.tainan.gov.tw/acthouse/actpage.asp?mainid=563AC05A-08C6-44BD-AAEC-B6BD0CA7F0E1,http://tnda.tainan.gov.tw/warehouse/A00000/0(4).jpg,東區,臺南市東區富強里裕農路446巷88號,0910827792,22.9861627830435,120.231913
興化社區活動中心,http://tnda.tainan.gov.tw/acthouse/actpage.asp?mainid=28229504-3A1F-4BD5-A51C-572971536017,http://tnda.tainan.gov.tw/warehouse/B70000/DSC00557.JPG,佳里區,臺南市佳里區佳里區興化里545-11號,0937309458,23.187613,120.185999
蚶寮社區活動中心,http://tnda.tainan.gov.tw/acthouse/actpage.asp?mainid=FE35A842-8140-48D3-9D82-A45EDFB8F0D4,http://tnda.tainan.gov.tw/warehouse/B70000/DSC00454.JPG,佳里區,臺南市佳里區蚶寮里蚶寮51-1號,7892305,23.130548,120.157487
七甲龍湖聯合多功能活動中心,http://tnda.tainan.gov.tw/acthouse/actpage.asp?mainid=5B3995E8-D0FF-43F1-8242-463FD529BF20,http://tnda.tainan.gov.tw/warehouse/B40000/100_1950.JPG,六甲區,臺南市六甲區七甲里七甲街89巷2號,6982031,23.221821,120.345405
塭南里活動中心,http://tnda.tainan.gov.tw/acthouse/actpage.asp?mainid=6A20F285-B162-44C6-BA37-5612541E2BB8,http://tnda.tainan.gov.tw/warehouse/A50000/100_1909.JPG,安南區,臺南市安南區塭南里安昌街130號,06-3566315,23.07088,120.219677
城東里活動中心,http://tnda.tainan.gov.tw/acthouse/actpage.asp?mainid=990C619A-F4AE-46A1-89CE-3196D1141444,http://tnda.tainan.gov.tw/warehouse/A50000/untitled.bmp,安南區,臺南市安南區城東里城安路73號,06-2567126,23.066642,120.127546
城西里活動中心,http://tnda.tainan.gov.tw/acthouse/actpage.asp?mainid=7741901E-15C4-4A0F-83AC-9004F47BBD5C,http://tnda.tainan.gov.tw/warehouse/A50000/城西活動中心.JPG,安南區,台南市安南區城西街三段431號,06-2577688,23.0581847168473,120.096773
州北里活動中心,http://tnda.tainan.gov.tw/acthouse/actpage.asp?mainid=90633266-E61F-4996-91A5-69ACE95886BC,http://tnda.tainan.gov.tw/warehouse/A50000/DSC05276(1).JPG,安南區,台南市安昌街22號,06-3566078,23.068405656537,120.217679
砂崙里活動中心,http://tnda.tainan.gov.tw/acthouse/actpage.asp?mainid=328D47F1-44DE-44FF-B597-2AB683F6EE4E,http://tnda.tainan.gov.tw/warehouse/A50000/砂崙活動中心.bmp,安南區,台南市城北路871巷94弄17號,06-2573077,23.0799715346872,120.127521
東和里活動中心,http://tnda.tainan.gov.tw/acthouse/actpage.asp?mainid=59582B2D-13F9-4884-B595-A6CBB502E610,http://tnda.tainan.gov.tw/warehouse/A50000/untitled12.bmp,安南區,臺南市安南區東和里長和路一段805號,0932707422,23.062559,120.228162
鹽田里活動中心,http://tnda.tainan.gov.tw/acthouse/actpage.asp?mainid=FD717581-AC3F-4DBE-A384-3E8A0C3E387D,http://tnda.tainan.gov.tw/warehouse/A50000/鹽田里活動中心.bmp,安南區,台南市鹽安路28號,06-3841797,23.0342813654961,120.144805
安慶里活動中心,http://tnda.tainan.gov.tw/acthouse/actpage.asp?mainid=E10419E9-CAD7-4041-9EDA-66670C6D9EC3,http://tnda.tainan.gov.tw/warehouse/A50000/DSC02444.JPG,安南區,台南市安南區長溪路一段168巷133號,0935702824,23.0366909733368,120.210249
青草里活動中心,http://tnda.tainan.gov.tw/acthouse/actpage.asp?mainid=91B0B0AB-83DC-401D-B541-935207D49D70,http://tnda.tainan.gov.tw/warehouse/A50000/12.bmp,安南區,台南市青砂街二段371巷2號,2572928,23.075738,120.112089
城南里活動中心,http://tnda.tainan.gov.tw/acthouse/actpage.asp?mainid=6F46342D-0896-45DF-B9A9-B8A3768661E3,http://tnda.tainan.gov.tw/warehouse/A50000/IMG_0205.JPG,安南區,城南里城西街一段61巷28弄98號,06-2577080,23.0608360911933,120.128744
布袋里活動中心,http://tnda.tainan.gov.tw/acthouse/actpage.asp?mainid=1628B163-C161-4209-A7F0-F2A3A7E622B1,http://tnda.tainan.gov.tw/warehouse/A50000/IMG_0048.JPG,安南區,台南市長和路四段231巷60弄41號,06-2566352,23.0650458578581,120.207425
原佃里活動中心,http://tnda.tainan.gov.tw/acthouse/actpage.asp?mainid=2F7802BC-1CE6-49FA-91EB-C7CF2813DA99,http://tnda.tainan.gov.tw/warehouse/A50000/P1000771.JPG,安南區,臺南市安南區本原街1段167巷36弄46號,06-2560439,23.0503816694081,120.195584
溪頂溪東里聯合活動中心,http://tnda.tainan.gov.tw/acthouse/actpage.asp?mainid=0DBCA3E4-06F2-43E6-A6A1-58257F8768BB,http://tnda.tainan.gov.tw/warehouse/A50000/2.jpg,安南區,台南市安南區府安路四段220號,06-2802851,23.025550610165,120.205654
安順里活動中心,http://tnda.tainan.gov.tw/acthouse/actpage.asp?mainid=47FEBEA4-8E7F-4B5F-A6A0-E7FCF53D87E7,http://tnda.tainan.gov.tw/warehouse/A50000/DSC02442.JPG,安南區,台南市育安街211號,06-3558530,23.050786,120.21527
二甲里活動中心,http://tnda.tainan.gov.tw/acthouse/actpage.asp?mainid=A463800D-4EAC-4075-A196-75CE95FCA8D0,http://tnda.tainan.gov.tw/warehouse/B40000/100_1506.JPG,六甲區,臺南市六甲區二甲里建工街266號,6982034,23.228089,120.346056
龜港里活動中心,http://tnda.tainan.gov.tw/acthouse/actpage.asp?mainid=315EB521-F2FF-440A-9242-4B7964EF87C8,http://tnda.tainan.gov.tw/warehouse/B40000/100_0690.JPG,六甲區,臺南市六甲區龜港里龜子港80巷38弄8號,6982117,23.251579,120.314487
成功里活動中心,http://tnda.tainan.gov.tw/acthouse/actpage.asp?mainid=7A3DA856-4B72-43E2-85D6-EC8C47B49781,http://tnda.tainan.gov.tw/warehouse/D20000/100_0778.JPG,仁德區,臺南市仁德區成功里37鄰保華路245號,0916799590,22.9594514697276,120.227488565641
中興興農里活動中心,http://tnda.tainan.gov.tw/acthouse/actpage.asp?mainid=A6E6A9C3-FFA2-4D71-AB02-6C5726DA16A0,http://tnda.tainan.gov.tw/warehouse/B20000/100_0926(1).jpg,麻豆區,臺南市麻豆區中興里15鄰自由路8號之6,06-5722006,23.1827271911234,120.244310671091
埤頭里活動中心,http://tnda.tainan.gov.tw/acthouse/actpage.asp?mainid=DEE1D0B9-B9B8-4673-9F39-778D16E9F74F,http://tnda.tainan.gov.tw/warehouse/B20000/埤頭.jpg,麻豆區,臺南市麻豆區埤頭里12鄰埤頭110-1號,06-5700039,23.1959749896555,120.227786922455
總頭社區活動中心,http://tnda.tainan.gov.tw/acthouse/actpage.asp?mainid=6C3F7917-B4EA-4816-B6F8-7D782F7E7C74,http://tnda.tainan.gov.tw/warehouse/A50000/總頭社區活動中心.jpg,安南區,臺南市安南區長溪路2段565號,06-2568320,23.0559922755972,120.202208
公親社區活動中心,http://tnda.tainan.gov.tw/acthouse/actpage.asp?mainid=5E8FC888-AAD4-4CE8-890F-6F5A0CF0899E,http://tnda.tainan.gov.tw/warehouse/A50000/公親社區活動中心.jpg,安南區,臺南市安南區公學路1段211號,06-2554707,23.077032,120.199694
塭南社區活動中心,http://tnda.tainan.gov.tw/acthouse/actpage.asp?mainid=3B43211B-AA79-442F-A4BF-26C7C733C7CB,http://tnda.tainan.gov.tw/warehouse/A50000/塭南社區活動中心.jpg,安南區,臺南市安南區塭南里環福街117號,06-3559005,23.071774,120.222638
安和社區活動中心,http://tnda.tainan.gov.tw/acthouse/actpage.asp?mainid=4B84F12D-084B-4BD6-9A04-0339FEABBAC7,http://tnda.tainan.gov.tw/warehouse/A50000/安和社區活動中心.JPG,安南區,臺南市安南區安和路一段96巷54號,06-3550657,23.0279110752644,120.215154
佃東佃西聯合社區活動中心,http://tnda.tainan.gov.tw/acthouse/actpage.asp?mainid=90B80863-444C-4E14-8573-6C0A9F4D776D,http://tnda.tainan.gov.tw/warehouse/A50000/佃東佃西活動中心.JPG,安南區,臺南市安南區公學路4段325號,06-2567628,23.0672357355655,120.175495
海東社區活動中心,http://tnda.tainan.gov.tw/acthouse/actpage.asp?mainid=EC2252D9-25E1-4026-AB96-9412B9FF961C,http://tnda.tainan.gov.tw/warehouse/A50000/海東社區活動中心.jpg,安南區,臺南市安南區海佃路二段509巷65號,06-2561342,23.0422992623732,120.185338
登陸社區活動中心,http://tnda.tainan.gov.tw/acthouse/actpage.asp?mainid=67B67614-7250-46B3-B1BB-9B060A192B10,http://tnda.tainan.gov.tw/warehouse/A50000/登陸社區活動中心.jpg,安南區,臺南市安南區城西街2段233巷15號,06-2570878,23.0592680774975,120.119353256622
城北社區活動中心,http://tnda.tainan.gov.tw/acthouse/actpage.asp?mainid=219A4C65-157C-4946-9872-DD1BF643A694,http://tnda.tainan.gov.tw/warehouse/A50000/城北社區活動中心.jpg,安南區,臺南市安南區城北里安中路6段507巷15號,06-2572288,23.0616173722566,120.130705
南關里活動中心,http://tnda.tainan.gov.tw/acthouse/actpage.asp?mainid=2901D0D9-E229-4C78-B04F-D2DEF374FDC5,http://tnda.tainan.gov.tw/warehouse/C40000/100_3252.JPG,善化區,臺南市善化區南關里三民路6-6號,0932801357,23.129203,120.287811
城中社區活動中心,http://tnda.tainan.gov.tw/acthouse/actpage.asp?mainid=5EAAD6C5-854A-4231-8D31-231A5FAA42D8,http://tnda.tainan.gov.tw/warehouse/A50000/DSC01082.JPG,安南區,臺南市安南區安中路6段507巷25號,06-2571856,23.0629155938016,120.130511
南興社區活動中心,http://tnda.tainan.gov.tw/acthouse/actpage.asp?mainid=B9E104B3-EAC2-4E6A-8412-DE31747E3EC2,http://tnda.tainan.gov.tw/warehouse/A50000/南興社區活動中心.jpg,安南區,臺南市安南區南興街435巷2號,06-2870391,23.0714782927319,120.156204
淵西社區活動中心,http://tnda.tainan.gov.tw/acthouse/actpage.asp?mainid=32324CC7-7199-4530-8D65-2418877B7B18,http://tnda.tainan.gov.tw/warehouse/A50000/淵西社區活動中心.jpg,安南區,臺南市安南區安中路4段318號,06-2464325,23.0842907734741,120.09084405899
媽祖宮社區活動中心,http://tnda.tainan.gov.tw/acthouse/actpage.asp?mainid=F68F4A8F-89D6-4A5C-9263-361C957CE54F,http://tnda.tainan.gov.tw/warehouse/A50000/媽祖宮社區活動中心.jpg,安南區,臺南市安南區媽祖宮五街10號,06-2841343,23.044337,120.127292
西埔社區活動中心,http://tnda.tainan.gov.tw/acthouse/actpage.asp?mainid=D46BF861-543E-46E1-9E2D-229CEF5F077A,http://tnda.tainan.gov.tw/warehouse/D00000/68e41aa1-2142-4206-b06a-c4ed91d8369f.JPG,南化區,臺南市南化區西埔里59之1號,06-5771513#106,23.0330155211897,120.447340100464
小崙社區活動中心,http://tnda.tainan.gov.tw/acthouse/actpage.asp?mainid=1EE55B3F-4C1F-4334-9E76-86837338AA67,http://tnda.tainan.gov.tw/warehouse/D00000/IMG_0146.JPG,南化區,臺南市南化區小崙里53-9號,06-5771513#106,23.050018,120.496918
理想大安社區聯合活動中心,http://tnda.tainan.gov.tw/acthouse/actpage.asp?mainid=C68313B7-CDDD-4E5E-84FF-506EFDA100D0,http://tnda.tainan.gov.tw/warehouse/A50000/理想大安社區聯合活動中心.jpg,安南區,臺南市安南區大安街135號,06-2567858,23.03324,120.193189
東和社區活動中心,http://tnda.tainan.gov.tw/acthouse/actpage.asp?mainid=B340A204-2B26-4C15-96CD-CB439D2B5476,http://tnda.tainan.gov.tw/warehouse/D00000/009.jpg,南化區,臺南市南化區東和里19-1號,06-5771513#106,23.023807,120.484672
胡厝里活動中心,http://tnda.tainan.gov.tw/acthouse/actpage.asp?mainid=31EE297C-67A4-42C8-8B07-758379476047,http://tnda.tainan.gov.tw/warehouse/C40000/P4300339.JPG,善化區,臺南市善化區胡厝里西衛32-2號,0928716579,23.13417,120.25952
胡家里活動中心,http://tnda.tainan.gov.tw/acthouse/actpage.asp?mainid=2AC1D670-AB37-4560-8667-CCED7DC1E7A7,http://tnda.tainan.gov.tw/warehouse/C40000/PC200455.JPG,善化區,臺南市善化區胡家里胡厝寮70號,0933283738,23.147409,120.269719
八翁里活動中心,http://tnda.tainan.gov.tw/acthouse/actpage.asp?mainid=41D01CB6-428E-4ABA-9BC6-CE353CB83BCA,http://tnda.tainan.gov.tw/warehouse/A90000/DSC01171.JPG,柳營區,台南市柳營區八翁里4鄰62-4號,06-6220770,177292.408,2575040.687
大仁社區活動中心,http://tnda.tainan.gov.tw/acthouse/actpage.asp?mainid=FBE4C125-C767-4444-A1BB-CB64CB6253C1,http://tnda.tainan.gov.tw/warehouse/A30000/大仁社區活動中心.jpg,北區,臺南市北區和緯路一段1號,06-2832365,23.009238,120.216649
育平里活動中心,http://tnda.tainan.gov.tw/acthouse/actpage.asp?mainid=F1D2487D-C414-4703-A01B-8FD933B3B221,http://tnda.tainan.gov.tw/warehouse/A40000/d2_20081121132134(1).jpg,安平區,臺南市安平區府平路376號,06-2937503,22.987102,120.167154
勝安里活動中心,http://tnda.tainan.gov.tw/acthouse/actpage.asp?mainid=B6098A4E-A745-4694-AB04-9B62A4F3F02E,http://tnda.tainan.gov.tw/warehouse/A30000/勝安里活動中心.bmp,北區,台南市開元路73巷21號,06-2348266,23.008709197868,120.218398
九六社區活動中心,http://tnda.tainan.gov.tw/acthouse/actpage.asp?mainid=E757F3B6-EA49-489F-8B49-FF4BF53ED0A9,http://tnda.tainan.gov.tw/warehouse/A30000/九六社區活動中心.jpg,北區,台南市北區精忠街105號,06-2521960,23.009039,120.213
中樓社區活動中心,http://tnda.tainan.gov.tw/acthouse/actpage.asp?mainid=DA7742D0-E933-4FFF-A3A8-ABFB4FF875D5,http://tnda.tainan.gov.tw/warehouse/A30000/中樓.jpg,北區,臺南市北區開元路124號4樓,06-2376813,23.006644,120.219076
玉山里多功能活動中心,http://tnda.tainan.gov.tw/acthouse/actpage.asp?mainid=BFF83B3F-01DD-4068-9B84-3357C4BCCA84,http://tnda.tainan.gov.tw/warehouse/D00000/100_3528.JPG,南化區,臺南市南化區玉山里65號,06-5771513#104,23.0762400932323,120.519756878235
大福社區活動中心,http://tnda.tainan.gov.tw/acthouse/actpage.asp?mainid=EC100260-4D98-4E45-B7FC-6F6E3C351F1E,http://tnda.tainan.gov.tw/warehouse/A00000/0.jpg,東區,臺南市東區大福里立德九路46號,06-2159935,22.97716,120.215236
尚頂里活動中心,http://tnda.tainan.gov.tw/acthouse/actpage.asp?mainid=D830C2C2-BC01-4A22-A939-0AF78F275C8B,http://tnda.tainan.gov.tw/warehouse/D60000/尚頂-1.JPG,永康區,臺南市永康區中華路920號,2532328,23.014653,120.229946
甲頂里活動中心,http://tnda.tainan.gov.tw/acthouse/actpage.asp?mainid=6DD7842B-C64A-4C8A-BDFC-1847D64269B9,http://tnda.tainan.gov.tw/warehouse/D60000/DSC05513.JPG,永康區,臺南市永康區甲頂里中華路920號,2812550,23.022745,120.219231
仁義里活動中心,http://tnda.tainan.gov.tw/acthouse/actpage.asp?mainid=7070CC6F-EF87-4E99-89F4-E36D1DFFC369,http://tnda.tainan.gov.tw/warehouse/D20000/仁義里活動中心.jpg,仁德區,臺南市仁德區仁義里仁義路130之2號,2702459,22.972595,120.253227
港墘社區活動中心,http://tnda.tainan.gov.tw/acthouse/actpage.asp?mainid=40EE0B97-77E9-4964-8453-21C0BF4FE8E4,http://tnda.tainan.gov.tw/warehouse/C50000/DSC08085.JPG,新市區,臺南市新市區港墘里華美街11-1號,(06)599-5986,23.0750646457472,120.298215184547
大社社區活動中心,http://tnda.tainan.gov.tw/acthouse/actpage.asp?mainid=7C6924F8-2C7D-471A-9863-120480CED7DA,http://tnda.tainan.gov.tw/warehouse/C50000/照片 002.jpg,新市區,台南市新市區大社里159號,(06)589-5277,23.0886095588329,120.317876833343
三舍社區活動中心,http://tnda.tainan.gov.tw/acthouse/actpage.asp?mainid=08B396BE-0A21-487A-8B88-A63E127135FF,http://tnda.tainan.gov.tw/warehouse/C50000/DSC09149-ps.JPG,新市區,台南市新市區三舍里67號,(06)599-5359,23.0897986072316,120.296738037109
永就社區活動中心,http://tnda.tainan.gov.tw/acthouse/actpage.asp?mainid=5601ADF8-27B7-4A23-A8F9-02375DA70B67,http://tnda.tainan.gov.tw/warehouse/C50000/P1040210.JPG,新市區,台南市新市區永就里94之3號,(06)598-8922,23.0624354109157,120.292623711578
大埕番仔塭活動中心,http://tnda.tainan.gov.tw/acthouse/actpage.asp?mainid=8A545632-8095-4F93-A613-4D6A91859818,http://tnda.tainan.gov.tw/warehouse/C00000/CIMG0128.JPG,七股區,臺南市七股區大埕里1鄰大埕126之1號,7872413,23.150882,120.153092
城內里活動中心,http://tnda.tainan.gov.tw/acthouse/actpage.asp?mainid=4A5137E1-E7B0-4FC5-AC5D-EB703BA7FD5C,http://tnda.tainan.gov.tw/warehouse/C00000/DSC02223.JPG,七股區,臺南市七股區城內里3鄰16-3號,7941567,23.168556,120.137032
義合里多功能活動中心,http://tnda.tainan.gov.tw/acthouse/actpage.asp?mainid=9747394E-5CEA-44DC-BC8B-DE0F9D2BBAD0,http://tnda.tainan.gov.tw/warehouse/C00000/ALIM2488.JPG,七股區,臺南市七股區義合里9鄰義合72之2號,7891116,23.103069,120.141808
保安里活動中心,http://tnda.tainan.gov.tw/acthouse/actpage.asp?mainid=EC0892DC-484B-48D5-859E-6EA877189D14,http://tnda.tainan.gov.tw/warehouse/A20000/01(10).jpg,中西區,臺南市中西區尊王路53號,06-2257903,23.141698,120.251273
望明里活動中心,http://tnda.tainan.gov.tw/acthouse/actpage.asp?mainid=756B0E54-AA1B-4AF0-9F30-5630AC390BB8,http://tnda.tainan.gov.tw/warehouse/C80000/P1020846.JPG,玉井區,臺南市玉井區望明里7鄰望明76號,0938139066,23.106774,120.455619
拔林里活動中心,http://tnda.tainan.gov.tw/acthouse/actpage.asp?mainid=72D3CBCB-BAD8-4BC6-A8D2-0EDC1426B4AA,http://tnda.tainan.gov.tw/warehouse/B50000/IMG_1100.JPG,官田區,臺南市官田區拔林里6鄰拔子林43號之7,06-6902555,23.141698,120.251273
德高里活動中心,http://tnda.tainan.gov.tw/acthouse/actpage.asp?mainid=F927BE3C-8DC7-4168-98E3-AE8827F58112,http://tnda.tainan.gov.tw/warehouse/A00000/德高0.bmp,東區,臺南市東區仁和路196號,06-2685901,22.969352,120.234352
崇善里活動中心,http://tnda.tainan.gov.tw/acthouse/actpage.asp?mainid=2B6B5B72-46D0-48B8-885B-5B45D0FFFA8F,http://tnda.tainan.gov.tw/warehouse/A00000/0(15).jpg,東區,臺南市東區仁和路70巷38號,06-2903772,22.969983,120.235493
復興里活動中心,http://tnda.tainan.gov.tw/acthouse/actpage.asp?mainid=7010D04F-C78E-4E23-A8C2-D5881298F410,http://tnda.tainan.gov.tw/warehouse/A00000/活動中心正面(2).JPG,東區,臺南市東區裕忠路456號,06-2677357,22.979874,120.241753
德光里活動中心,http://tnda.tainan.gov.tw/acthouse/actpage.asp?mainid=5F41AF3F-7E97-475C-883B-45CD5FD58459,http://tnda.tainan.gov.tw/warehouse/A00000/活動中心正面(1).jpg,東區,臺南市東區崇德路111號,06-2680280,22.979737,120.219355
崇文崇成里聯合活動中心,http://tnda.tainan.gov.tw/acthouse/actpage.asp?mainid=26DE9BF1-29B6-4549-BEFF-B837A026A83C,http://tnda.tainan.gov.tw/warehouse/A00000/untitled(1).jpg,東區,臺南市東區崇文里崇德路691號,06-2899558,22.968559,120.227651
中華里活動中心,http://tnda.tainan.gov.tw/acthouse/actpage.asp?mainid=B05C525D-86E0-45B5-B2AD-A3324C9E14BF,http://tnda.tainan.gov.tw/warehouse/D60000/SANY0111.JPG,永康區,臺南市永康區忠勇街51號,3116679,23.000769,120.238107
復華里活動中心,http://tnda.tainan.gov.tw/acthouse/actpage.asp?mainid=A7708D22-4CE7-4264-AE85-D090E74BBBC6,http://tnda.tainan.gov.tw/warehouse/D60000/IMG_6424(1).jpg,永康區,臺南市永康區國華街110號,2024239,23.014561,120.246974
鹽洲里活動中心,http://tnda.tainan.gov.tw/acthouse/actpage.asp?mainid=FCDF1F7C-E4A0-4A96-9E48-16741DA198B4,http://tnda.tainan.gov.tw/warehouse/D60000/IMG0047A.jpg,永康區,臺南市永康區鹽行路100巷40弄16號,2532090,23.044405,120.233646
果毅後多功能活動中心,http://tnda.tainan.gov.tw/acthouse/actpage.asp?mainid=DAA56983-8493-44B4-A98E-A81DE421F6D1,http://tnda.tainan.gov.tw/warehouse/A90000/DSC01134.JPG,柳營區,台南市柳營區神農里6鄰果毅後284-5號,06-6232591,183061.859,2573042.335
大橋集會所,http://tnda.tainan.gov.tw/acthouse/actpage.asp?mainid=35390D41-8C1D-4FD2-8D34-FD6BF844A055,http://tnda.tainan.gov.tw/warehouse/D60000/DSC05511.JPG,永康區,臺南市永康區中華路898-1號,2034038,23.0165,120.228936
崑山里活動中心,http://tnda.tainan.gov.tw/acthouse/actpage.asp?mainid=E68CFF35-F5C8-438A-BA24-C47AF80F5278,http://tnda.tainan.gov.tw/warehouse/D60000/1356420092871.jpg,永康區,臺南市永康區崑山街222巷11號,06-2729843,23.0052502101502,120.260552787781
北平里活動中心,http://tnda.tainan.gov.tw/acthouse/actpage.asp?mainid=259EA5E1-0E6C-4FCC-9864-26CBA9574A67,http://tnda.tainan.gov.tw/warehouse/D00000/DSC04516.JPG,南化區,臺南市南化區北平里53之5號,06-5771513#104,23.06651083431,120.473882627045
小崙里中山堂,http://tnda.tainan.gov.tw/acthouse/actpage.asp?mainid=D8220A07-9137-4ACC-96B3-E68B4B040CF5,http://tnda.tainan.gov.tw/warehouse/D00000/IMG_0147.JPG,南化區,臺南市南化區小崙里60之1號,06-5771513#104,23.050018,120.496918
公園里活動中心,http://tnda.tainan.gov.tw/acthouse/actpage.asp?mainid=1DAAB45C-2073-4D83-A38B-2457D32801FC,http://tnda.tainan.gov.tw/warehouse/A30000/公園里活動中心.bmp,北區,臺南市北區公園南路39號,06-2206915,22.994597,120.20525
新勝里活動中心,http://tnda.tainan.gov.tw/acthouse/actpage.asp?mainid=B819D430-E221-4177-A67E-B89A4A2D6704,http://tnda.tainan.gov.tw/warehouse/A30000/新勝里活動中心.bmp,北區,臺南市北園街8巷8、10號1-3樓,李嬌鸞,23.010478,120.223425
郡王里活動中心,http://tnda.tainan.gov.tw/acthouse/actpage.asp?mainid=5125B8AF-A887-41E8-85E1-4D435F0489F1,http://tnda.tainan.gov.tw/warehouse/A20000/郡王里活動中心.jpg,中西區,臺南市中西區建業街20號,06-2137939,22.987897,120.206949
開山里活動中心,http://tnda.tainan.gov.tw/acthouse/actpage.asp?mainid=E8280A64-F198-429A-8801-FF48754DFDB3,http://tnda.tainan.gov.tw/warehouse/A20000/開山里活動中心.jpg,中西區,臺南市中西區府前路一段31號,0931839567,22.988952,120.210624
南保里南興里活動中心,http://tnda.tainan.gov.tw/acthouse/actpage.asp?mainid=5E02224A-DF47-4D8B-93BA-164B385807EF,http://tnda.tainan.gov.tw/warehouse/D30000/南保里.jpg,歸仁區,臺南市歸仁區南保里文化街三段208號,2393291,22.9688534687118,120.287996538406
後市里活動中心,http://tnda.tainan.gov.tw/acthouse/actpage.asp?mainid=9527AF8C-5E25-40FB-A656-0272DA22098D,http://tnda.tainan.gov.tw/warehouse/D30000/後市里.jpg,歸仁區,臺南市歸仁區後市里國光街55號,2393551,22.9680932959713,120.289884235443
沙崙里活動中心,http://tnda.tainan.gov.tw/acthouse/actpage.asp?mainid=A8B8E369-615C-45EC-AAC9-5C6DBF503283,http://tnda.tainan.gov.tw/warehouse/D30000/沙崙里.jpg,歸仁區,臺南市歸仁區沙崙里沙崙269號,2396575,22.9243732632596,120.319935427445
斗六活動中心,http://tnda.tainan.gov.tw/acthouse/actpage.asp?mainid=97BFBAC5-99EC-42B6-94EB-481FC30074A3,http://tnda.tainan.gov.tw/warehouse/C80000/P1020861.JPG,玉井區,臺南市玉井區中正里119-2號,0972228312,23.061396,120.415597
三埔里多功能活動中心,http://tnda.tainan.gov.tw/acthouse/actpage.asp?mainid=53C8DEFF-611A-4188-A299-59231869AA9B,http://tnda.tainan.gov.tw/warehouse/C80000/P1020854.JPG,玉井區,臺南市玉井區三埔15之1,0920571745,23.092752,120.495394
許厝里活動中心,http://tnda.tainan.gov.tw/acthouse/actpage.asp?mainid=490A0722-C477-4647-B00A-6491A1082D81,http://tnda.tainan.gov.tw/warehouse/D30000/許厝里.jpg,歸仁區,臺南市歸仁區許厝里中山路一段437巷9號,2304060,22.9661281069041,120.299278904785
王行里活動中心,http://tnda.tainan.gov.tw/acthouse/actpage.asp?mainid=4F1CA5EC-98CA-43B0-9B8D-11A6812AA871,http://tnda.tainan.gov.tw/warehouse/D60000/100_0661.JPG,永康區,臺南市永康區王行路866巷29弄118號,2034081,23.051458,120.277578
龍潭里活動中心,http://tnda.tainan.gov.tw/acthouse/actpage.asp?mainid=E16C3AA6-D41F-49A8-BB99-8713382DAAD3,http://tnda.tainan.gov.tw/warehouse/D60000/100_4169.jpg,永康區,臺南市永康區龍國街400號,2034081,23.031828,120.26638
層林活動中心,http://tnda.tainan.gov.tw/acthouse/actpage.asp?mainid=E024BE4F-A2FD-4238-BC42-22B9191FA864,http://tnda.tainan.gov.tw/warehouse/C80000/P1020848.JPG,玉井區,臺南市玉井區層林里115號,0972228312,23.077988,120.429822
田寮里活動中心,http://tnda.tainan.gov.tw/acthouse/actpage.asp?mainid=088862A5-A8F7-4077-8B19-42A150F68652,http://tnda.tainan.gov.tw/warehouse/A70000/田寮.JPG,鹽水區,臺南市鹽水區田寮里田寮45號,0956029985,23.277887,120.228523
永祥里活動中心,http://tnda.tainan.gov.tw/acthouse/actpage.asp?mainid=F3DFB4F6-755B-4049-AB58-633210CC85B6,http://tnda.tainan.gov.tw/warehouse/A30000/永祥里.bmp,北區,台南市北區實踐街85巷2號,0932709209,23.01455,120.219601
大豐里活動中心,http://tnda.tainan.gov.tw/acthouse/actpage.asp?mainid=D6F30941-5A16-44C3-ACAC-6BECB824BBC7,http://tnda.tainan.gov.tw/warehouse/A30000/大豐里.bmp,北區,臺南市北區武聖路315號,2581034,23.008234,120.187598
麻口社區活動中心,http://tnda.tainan.gov.tw/acthouse/actpage.asp?mainid=B6246C8C-86A8-409A-AF8C-E0657CDB9ED6,http://tnda.tainan.gov.tw/warehouse/B20000/麻口活動中心.jpg,麻豆區,臺南市麻豆區麻口里麻豆口54之6號,06-5702059,23.176913,120.219747
龍泉社區活動中心,http://tnda.tainan.gov.tw/acthouse/actpage.asp?mainid=DB25A35B-DA49-47FC-BD81-F4F11E82A1E0,http://tnda.tainan.gov.tw/warehouse/B20000/DSC04695.JPG,麻豆區,臺南市麻豆區龍泉里20號,06-5725493,23.174764,120.259927
港尾社區活動中心,http://tnda.tainan.gov.tw/acthouse/actpage.asp?mainid=7C958560-5179-4906-B25C-A48D6042EB39,http://tnda.tainan.gov.tw/warehouse/B20000/IMG_0013.JPG,麻豆區,臺南市麻豆區港尾里48-2號,06-5704678,23.20304,120.202224
玉井、玉田活動中心,http://tnda.tainan.gov.tw/acthouse/actpage.asp?mainid=FBA29D49-B76C-4A0A-92D6-0460155CA92F,http://tnda.tainan.gov.tw/warehouse/C80000/P1020841(1).JPG,玉井區,台南市玉井區中正路7號,0963467201,23.121908,120.459337
東橋里活動中心,http://tnda.tainan.gov.tw/acthouse/actpage.asp?mainid=24EDE87F-B9FA-4410-BF66-B8C788D5D73D,http://tnda.tainan.gov.tw/warehouse/D60000/IMG_2125.jpg,永康區,臺南市永康區東橋十街158號,2325980,23.022582,120.233432
協和里活動中心,http://tnda.tainan.gov.tw/acthouse/actpage.asp?mainid=F162C97B-7B4C-443C-9AF2-059FEEE82398,http://tnda.tainan.gov.tw/warehouse/A20000/DSCN5336.JPG,中西區,臺南市中西區民族路三段258號3樓,0971-106456,23.000049,120.193075
北寮社區活動中心,http://tnda.tainan.gov.tw/acthouse/actpage.asp?mainid=1F737637-C795-485C-9D30-CD3D54C9B2AF,http://tnda.tainan.gov.tw/warehouse/D00000/1.jpg,南化區,臺南市南化區北寮里3號,06-5771513#106,23.076939,120.493996
水仙里活動中心,http://tnda.tainan.gov.tw/acthouse/actpage.asp?mainid=341B8F3A-8C2E-4F47-9AA9-31B7EDF586EE,http://tnda.tainan.gov.tw/warehouse/A70000/水仙(1).JPG,鹽水區,臺南市鹽水區水仙里5鄰中山路3巷15-1號,0910816555,23.32011,120.266746
歡雅里活動中心-尾寮,http://tnda.tainan.gov.tw/acthouse/actpage.asp?mainid=CC2A8E0B-A64C-4097-8A5A-1CCF0194470C,http://tnda.tainan.gov.tw/warehouse/A70000/歡雅-尾寮1.JPG,鹽水區,臺南市鹽水區歡雅里尾寮17-1號,0910818263,23.289675,120.237218
清芳社區活動中心,http://tnda.tainan.gov.tw/acthouse/actpage.asp?mainid=C1CCE765-3EC5-4302-A07B-D55E0056D94D,http://tnda.tainan.gov.tw/warehouse/C80000/活動中心1樓空間.JPG,玉井區,臺南市玉井區健康街10號,06-5749751,23.134697,120.46199
歡雅里活動中心-下寮,http://tnda.tainan.gov.tw/acthouse/actpage.asp?mainid=03E38F59-1541-46BB-969E-065EAACBD7C2,http://tnda.tainan.gov.tw/warehouse/A70000/歡雅-下寮.JPG,鹽水區,臺南市鹽水區歡雅里下寮13-1號,0910818263,23.2794359018642,120.241489219574
河南里活動中心,http://tnda.tainan.gov.tw/acthouse/actpage.asp?mainid=BBCCB373-0E1E-43A9-922C-203D053C8582,http://tnda.tainan.gov.tw/warehouse/A70000/南港里-長壽俱樂部.JPG,鹽水區,臺南市鹽水區南港里坔頭港143-2號,0988225138,23.255946,120.245478
蜈蜞坑活動中心,http://tnda.tainan.gov.tw/acthouse/actpage.asp?mainid=01C44E57-C1AD-4264-ACB7-6CEA1F64AD2C,http://tnda.tainan.gov.tw/warehouse/A70000/下林-蜈蜞坑2.jpg,鹽水區,臺南市鹽水區下林里蜈蜞坑22號,0931947125,23.262286,120.244597
飯店里活動中心,http://tnda.tainan.gov.tw/acthouse/actpage.asp?mainid=D5CD76DE-61CE-46DD-BE5C-4466F8117105,http://tnda.tainan.gov.tw/warehouse/A70000/飯店二.JPG,鹽水區,臺南市鹽水區飯店里5鄰18號,0931993413,23.270405,120.213766
海頭社區活動中心,http://tnda.tainan.gov.tw/acthouse/actpage.asp?mainid=42E98DF0-4E25-474F-9F01-1EF669442F94,http://tnda.tainan.gov.tw/warehouse/A40000/海頭.jpg,安平區,臺南市安平區古堡街90巷33號,2315863,23.000349,120.161366
安中社區活動中心,http://tnda.tainan.gov.tw/acthouse/actpage.asp?mainid=C3B65D64-1AC2-46FF-9041-1B39963F6491,http://tnda.tainan.gov.tw/warehouse/A40000/安中.bmp,安平區,臺南市安平區安北路121巷15弄17號,2277899,23.0019813597089,120.164454603195
沙灘忠誠社區聯合活動中心,http://tnda.tainan.gov.tw/acthouse/actpage.asp?mainid=53F894A9-C5EB-4163-8DCC-6166BB83D9C8,http://tnda.tainan.gov.tw/warehouse/A40000/untitled(2).bmp,安平區,臺南市安平區世平路69號,06-3914920,22.9970631213626,120.15028181076
校前社區活動中心,http://tnda.tainan.gov.tw/acthouse/actpage.asp?mainid=437430A6-5FFF-4EAC-A38A-38F11F2E6E16,http://tnda.tainan.gov.tw/warehouse/A40000/untitled(1).bmp,安平區,臺南市安平路51巷20弄34號,2276181,22.9987519342494,120.165023231506
菩薩社區活動中心,http://tnda.tainan.gov.tw/acthouse/actpage.asp?mainid=4E59FE88-8C00-4717-908A-EDF4EF31D0CF,http://tnda.tainan.gov.tw/warehouse/A40000/untitled12345.bmp,安平區,臺南市安平區安平路121巷3號,06-2980706,22.9990543875429,120.163169825077
礁坑社區活動中心,http://tnda.tainan.gov.tw/acthouse/actpage.asp?mainid=8C573BD4-526B-4B3D-9568-33E3D66C5560,http://tnda.tainan.gov.tw/warehouse/C30000/礁坑里25號.JPG,新化區,臺南市新化區礁坑里礁坑子25號,06-5903385,23.004562,120.371321
崙頂里活動中心,http://tnda.tainan.gov.tw/acthouse/actpage.asp?mainid=77B8E1E8-5E97-4BBE-956A-65C317EBD21E,http://tnda.tainan.gov.tw/warehouse/C30000/崙頂里.JPG,新化區,臺南市新化區崙頂里崙子頂422號,0933612327,23.022751,120.287735
𦰡拔里.羊林里活動中心,http://tnda.tainan.gov.tw/acthouse/actpage.asp?mainid=1C5FA8B2-5F0A-4F86-AF22-380D404C8D6D,http://tnda.tainan.gov.tw/warehouse/C30000/那拔羊林里.JPG,新化區,臺南市新化區𦰡拔里那拔林329號,0936980611,23.067002,120.350354
青年銀同里活動中心,http://tnda.tainan.gov.tw/acthouse/actpage.asp?mainid=E0E4A708-7DA1-4DCE-B2D0-87C338A152DD,http://tnda.tainan.gov.tw/warehouse/A20000/DSCI0042.JPG,中西區,臺南市中西區開山路一號,2284281,22.992265,120.20566
文賢里活動中心,http://tnda.tainan.gov.tw/acthouse/actpage.asp?mainid=15EF9608-3199-4706-B439-139BD318A2A8,http://tnda.tainan.gov.tw/warehouse/A20000/01(4).jpg,中西區,臺南市中西區西和路17號,06-2599191,22.999509,120.187738
三合里活動中心,http://tnda.tainan.gov.tw/acthouse/actpage.asp?mainid=893E6D22-7DCC-406B-A42F-0013A203E065,http://tnda.tainan.gov.tw/warehouse/A20000/三合里活動中心.jpg,中西區,臺南市中西區忠孝街93巷47號,0911170301,23.000766,120.196031
普濟里活動中心,http://tnda.tainan.gov.tw/acthouse/actpage.asp?mainid=80F8CE4E-26D6-4D7C-9077-EFCC8BAA6861,http://tnda.tainan.gov.tw/warehouse/A20000/DSCI0112.JPG,中西區,臺南市中西區成功路343號3樓,06-2269292,23.000145,120.199586
福安里活動中心,http://tnda.tainan.gov.tw/acthouse/actpage.asp?mainid=4EE005F8-2CEB-4B9B-A465-1E4E7B751413,http://tnda.tainan.gov.tw/warehouse/A20000/DSC01946.jpg,中西區,臺南市中西區府前路一段262號,0915288012,22.990124,120.200264
豐里里活動中心,http://tnda.tainan.gov.tw/acthouse/actpage.asp?mainid=20A7FDAE-FE33-4087-9EB6-D01C046EAF82,http://tnda.tainan.gov.tw/warehouse/C80000/P1020845.JPG,玉井區,臺南市玉井區豐里59之10,0920571745,23.154829,120.443794
沙田活動中心,http://tnda.tainan.gov.tw/acthouse/actpage.asp?mainid=9051F898-CE48-42D8-8B53-DB3E02E954AC,http://tnda.tainan.gov.tw/warehouse/C80000/P1020850.JPG,玉井區,臺南市玉井區沙田里33-3號,0920571745,23.119576,120.482844
關廟活動中心,http://tnda.tainan.gov.tw/acthouse/actpage.asp?mainid=265C79A0-DEF1-4D17-BAB4-614870FDFB0A,http://tnda.tainan.gov.tw/warehouse/D40000/IMG_3500.JPG,關廟區,臺南市關廟里文化街85號,5950002,22.9591102736225,120.324874213631
大橋里活動中心,http://tnda.tainan.gov.tw/acthouse/actpage.asp?mainid=10007835-1EDD-4BB9-9702-ED5079723EF3,http://tnda.tainan.gov.tw/warehouse/D60000/DSC05508.JPG,永康區,臺南市永康區大橋三街230號,2034038,23.0206,120.228619
永新社區活動中心,http://tnda.tainan.gov.tw/acthouse/actpage.asp?mainid=D5090D3E-7E82-49FA-AE8C-CFFCF9D29ED3,http://tnda.tainan.gov.tw/warehouse/C30000/永新社區.JPG,新化區,臺南市新化區北勢里永新路11號,06-5981630,23.05676,120.291693
北勢里活動中心,http://tnda.tainan.gov.tw/acthouse/actpage.asp?mainid=60E8BEC1-48DA-4376-91E6-9166CD30D882,http://tnda.tainan.gov.tw/warehouse/C30000/1(8).JPG,新化區,臺南市新化區北勢里北勢39號,06-5989666,23.046612,120.289657
民權里活動中心,http://tnda.tainan.gov.tw/acthouse/actpage.asp?mainid=F9C0E570-5435-4B31-96BF-462B22FF3F62,http://tnda.tainan.gov.tw/warehouse/A20000/民權里活動中心.jpg,中西區,臺南市中西區民權里3段135號,0926278221,22.997061,120.196105
三和社區活動中心,http://tnda.tainan.gov.tw/acthouse/actpage.asp?mainid=BD039594-80D0-4A85-9D97-B388D5F587BC,http://tnda.tainan.gov.tw/warehouse/C80000/外觀照片.JPG,玉井區,臺南市玉井區三和里95-3號,06-5743967,23.092691,120.467987
新光里中山堂,http://tnda.tainan.gov.tw/acthouse/actpage.asp?mainid=C2EA0E4D-32A2-4E20-8632-CFC951C3C5E7,http://tnda.tainan.gov.tw/warehouse/D40000/DSCN0274.JPG,關廟區,臺南市關廟區新光里41-1號,5952174,22.9772145647433,120.359476844406
五甲里活動中心,http://tnda.tainan.gov.tw/acthouse/actpage.asp?mainid=C47B4AA2-7870-4D18-9815-9A42A3D03DD9,http://tnda.tainan.gov.tw/warehouse/D40000/DSC01926.JPG,關廟區,臺南市關廟區五甲里大富街86號,5959137,22.95536,120.330172
東勢里活動中心,http://tnda.tainan.gov.tw/acthouse/actpage.asp?mainid=F7F79317-BB57-4990-AE4E-5FA80D68315A,http://tnda.tainan.gov.tw/warehouse/D40000/DSC01940.JPG,關廟區,臺南市關廟區東勢里139巷12號,5952140,22.953615,120.334628
溪美社區活動中心,http://tnda.tainan.gov.tw/acthouse/actpage.asp?mainid=3306F6D6-3011-429B-9A8D-D0FEDFBF9628,http://tnda.tainan.gov.tw/warehouse/C40000/PICT0471.JPG,善化區,臺南市善化區溪美里71號,0910832736,23.155434,120.28347
菁埔里活動中心,http://tnda.tainan.gov.tw/acthouse/actpage.asp?mainid=FD294766-0053-4B1C-AA9C-60A9F6297026,http://tnda.tainan.gov.tw/warehouse/B40000/100_0746.JPG,六甲區,臺南市六甲區菁埔里83號,6988803,23.236119,120.302498
東勢社區活動中心,http://tnda.tainan.gov.tw/acthouse/actpage.asp?mainid=CD7F0F15-2138-42A6-9247-8F8B8D622B9B,http://tnda.tainan.gov.tw/warehouse/C90000/IMG_1245.JPG,楠西區,臺南市楠西區東勢里信義路66巷2號,06-5751423  0925056196,23.172456,120.487297
嘉南里活動中心,http://tnda.tainan.gov.tw/acthouse/actpage.asp?mainid=BB9E9DDC-969D-4E60-B6FC-5DE983B43931,http://tnda.tainan.gov.tw/warehouse/C40000/PICT0463.JPG,善化區,臺南市善化區嘉南里80-1號,0910831441,23.132152,120.32896
坐駕里活動中心,http://tnda.tainan.gov.tw/acthouse/actpage.asp?mainid=9FE0605B-BE3F-4CD0-A7F8-E99D1FF55A46,http://tnda.tainan.gov.tw/warehouse/C40000/PICT0390.JPG,善化區,臺南市善化區坐駕里大成路41-1號,0931814715,23.1305,120.3049
港子頭活動中心,http://tnda.tainan.gov.tw/acthouse/actpage.asp?mainid=5CFB87B6-3179-4655-9ADE-01B670C0C66C,http://tnda.tainan.gov.tw/warehouse/B40000/100_0696.JPG,六甲區,臺南市六甲區中社里港子頭30號,6982118,23.242756,120.32509
文正里社區活動中心,http://tnda.tainan.gov.tw/acthouse/actpage.asp?mainid=5C001525-3501-4970-91E5-B9E1A4A2F6A4,http://tnda.tainan.gov.tw/warehouse/C40000/PICT0474.JPG,善化區,臺南市善化區文正里文正路25巷18號,0932467399,23.1338,120.2868
小新社區活動中心,http://tnda.tainan.gov.tw/acthouse/actpage.asp?mainid=7ED7968D-E9C5-4C01-BCEC-06685BBA7F05,http://tnda.tainan.gov.tw/warehouse/C40000/DSC03435[2].jpg,善化區,臺南市善化區小新里113-24號,0989366896,23.123138,120.314367
中社里活動中心,http://tnda.tainan.gov.tw/acthouse/actpage.asp?mainid=3B003B21-7567-4E16-A57C-93607B308F23,http://tnda.tainan.gov.tw/warehouse/B40000/100_0691.JPG,六甲區,臺南市六甲區中社里中社351號,6982118,23.237294,120.325905
文昌社區活動中心,http://tnda.tainan.gov.tw/acthouse/actpage.asp?mainid=E87E7AE8-9D61-4D9A-B002-0D857D24CB57,http://tnda.tainan.gov.tw/warehouse/C40000/PICT0456.JPG,善化區,臺南市善化區文昌里光復路175-1號,0921021776,23.1279,120.29
隆本里活動中心,http://tnda.tainan.gov.tw/acthouse/actpage.asp?mainid=81CB1584-0710-40FD-B8D8-A59BF3AF522F,http://tnda.tainan.gov.tw/warehouse/B50000/IMG_1021.JPG,官田區,臺南市官田區隆本里興隆街33號,06-5792022,23.141698,120.251273
六分社區活動中心,http://tnda.tainan.gov.tw/acthouse/actpage.asp?mainid=43855203-ADE0-46C8-B04D-F2D9E803826B,http://tnda.tainan.gov.tw/warehouse/C40000/100_1081-1.JPG,善化區,臺南市善化區六分里471號,0918023681,23.163306,120.288768
豐和里活動中心,http://tnda.tainan.gov.tw/acthouse/actpage.asp?mainid=3965320A-BD63-494E-B660-4F9B69D17357,http://tnda.tainan.gov.tw/warehouse/B80000/IMG_1873.JPG,學甲區,臺南市學甲區豐和里美豐82-5號,0935114655,23.2168954261209,120.199199397137
南洲里農民教育活動中心,http://tnda.tainan.gov.tw/acthouse/actpage.asp?mainid=99E31BC3-315E-4D81-B678-2EA825A184ED,http://tnda.tainan.gov.tw/warehouse/C70000/3.JPG,山上區,臺南市山上區南洲里8鄰197號,06-5783352,23.09704,120.346336
平陽里活動中心,http://tnda.tainan.gov.tw/acthouse/actpage.asp?mainid=655AC67F-5F9C-4B63-B729-5386D956547A,http://tnda.tainan.gov.tw/warehouse/C70000/7.JPG,山上區,臺南市山上區平陽里石仔崎48號,06-5781201,23.084057,120.378105
豐德里中山堂,http://tnda.tainan.gov.tw/acthouse/actpage.asp?mainid=C3AFD001-BCED-4AC3-B7A7-BF952FBF04B9,http://tnda.tainan.gov.tw/warehouse/C70000/6.JPG,山上區,臺南市山上區豐德里4鄰隙仔口49-2號,06-5782761,23.079344,120.358307
新莊里大庄活動中心,http://tnda.tainan.gov.tw/acthouse/actpage.asp?mainid=A217A9AA-8F73-42D4-92B2-55A940E1C869,http://tnda.tainan.gov.tw/warehouse/C70000/5.JPG,山上區,臺南市山上區新莊里9鄰大庄32號,06-5782011,23.095766,120.354913
新莊里活動中心,http://tnda.tainan.gov.tw/acthouse/actpage.asp?mainid=1B34599F-1C33-44BD-BAAB-92A00E3D8CEE,http://tnda.tainan.gov.tw/warehouse/C70000/4.JPG,山上區,臺南市山上區新莊里3鄰30-3號,06-5782011,23.089653,120.357346
山上里農民教育活動中心,http://tnda.tainan.gov.tw/acthouse/actpage.asp?mainid=084909E0-EBD3-4A9F-8783-F8657DC30802,http://tnda.tainan.gov.tw/warehouse/C70000/山上里2.JPG,山上區,臺南市山上區山上里8鄰134-1號,06-5784506,23.101985,120.356397
小康社區老人休閒中心,http://tnda.tainan.gov.tw/acthouse/actpage.asp?mainid=AA88D6D2-F27D-43F2-AAD9-688B715B12A5,http://tnda.tainan.gov.tw/warehouse/A30000/小康.jpg,北區,臺南市北區實踐街17號,06-2519162,23.014229,120.217788
北勢洲農民教育活動中心,http://tnda.tainan.gov.tw/acthouse/actpage.asp?mainid=3403A9D3-E567-4D3A-BA83-2B8DF3C5D4E0,http://tnda.tainan.gov.tw/warehouse/C70000/IMG_4106.JPG,山上區,臺南市山上區明和里北勢洲51-1號,06-5781580,23.110778,120.333989
明和里農民教育活動中心,http://tnda.tainan.gov.tw/acthouse/actpage.asp?mainid=691E9ABF-1B14-417F-8515-98BF21DD786A,http://tnda.tainan.gov.tw/warehouse/C70000/1.JPG,山上區,臺南市山上區明和里98號,06-5782062,23.114113,120.340774
槺榔里多功能活動中心,http://tnda.tainan.gov.tw/acthouse/actpage.asp?mainid=813D8A26-1408-4503-A4B3-921156D4E16A,http://tnda.tainan.gov.tw/warehouse/C00000/100_1747.JPG,七股區,臺南市七股區槺榔里5鄰槺榔42之1號,7895022,23.0214155357827,120.267097377777
竹橋里多功能活動中心,http://tnda.tainan.gov.tw/acthouse/actpage.asp?mainid=53FC1277-9D2F-47A2-9B07-C8200BF9F9E1,http://tnda.tainan.gov.tw/warehouse/C00000/DSC00884.JPG,七股區,臺南市七股區竹橋里3鄰竹橋33之1號,7892756,23.158795,120.175653
桐寮里活動中心,http://tnda.tainan.gov.tw/acthouse/actpage.asp?mainid=DBD77FE8-2F90-4FB0-9B7D-B4C93976A80D,http://tnda.tainan.gov.tw/warehouse/A70000/桐1.JPG,鹽水區,臺南市鹽水區桐寮里6鄰44號,0937301049,23.291809,120.258484
舊營里活動中心,http://tnda.tainan.gov.tw/acthouse/actpage.asp?mainid=EEE7F117-299D-408E-8F5D-FBB1602B9D53,http://tnda.tainan.gov.tw/warehouse/A70000/舊1.JPG,鹽水區,臺南市鹽水區舊營里6鄰36號,里長0932718159,23.298212,120.259927
孫厝里活動中心,http://tnda.tainan.gov.tw/acthouse/actpage.asp?mainid=3F0317DC-CC6A-4B9F-A30A-7217DD2C2937,http://tnda.tainan.gov.tw/warehouse/A70000/孫厝.JPG,鹽水區,臺南市鹽水區孫厝里孫厝寮76-1號,0926857905,23.293285,120.222356
後壁侯伯社區聯合活動中心,http://tnda.tainan.gov.tw/acthouse/actpage.asp?mainid=D1B73FA6-BDB4-4A03-8BED-B1C12EEF8B0A,http://tnda.tainan.gov.tw/warehouse/B00000/綠美化觀摩 001.jpg,後壁區,臺南市後壁區後壁里12鄰193號,6871434,23.3673887004674,120.366399784592
水秀里活動中心,http://tnda.tainan.gov.tw/acthouse/actpage.asp?mainid=6C55FA85-E951-4150-887A-452E35C2337C,http://tnda.tainan.gov.tw/warehouse/A70000/1水秀正面.JPG,鹽水區,臺南市鹽水區水秀里土庫35-1號,0934081177,23.323523,120.278901
和愛社區活動中心,http://tnda.tainan.gov.tw/acthouse/actpage.asp?mainid=9D385E27-3A51-4920-A95A-85B121F114D9,http://tnda.tainan.gov.tw/warehouse/D20000/和愛2.JPG,仁德區,臺南市仁德區仁愛里仁愛7-1號,2491141,22.952332,120.221275
大同社區活動中心,http://tnda.tainan.gov.tw/acthouse/actpage.asp?mainid=A07BFC6F-A9A2-4560-9C9D-2DF290E0B39E,http://tnda.tainan.gov.tw/warehouse/C60000/DSC00045.JPG,安定區,臺南市安定區大同里81號,06-5931820,23.0836476368145,120.223674768765
南安社區活動中心,http://tnda.tainan.gov.tw/acthouse/actpage.asp?mainid=D1138915-A5B0-4468-BDC7-5EC50EA3C9EC,http://tnda.tainan.gov.tw/warehouse/C60000/南安.JPG,安定區,臺南市安定區南安里1-1號,06-5976562,23.1026324851905,120.22728266716
新吉社區活動中心,http://tnda.tainan.gov.tw/acthouse/actpage.asp?mainid=267C7093-8393-4E14-9401-50230B3F095B,http://tnda.tainan.gov.tw/warehouse/C60000/DSC00039.JPG,安定區,臺南市安定區新吉里14鄰123-13號,06-5934917,23.084690498475,120.212809467316
中榮農村社區活動中心,http://tnda.tainan.gov.tw/acthouse/actpage.asp?mainid=30F98EBB-E516-48C7-AE6F-3682160D8C30,http://tnda.tainan.gov.tw/warehouse/C60000/P1040501.JPG,安定區,臺南市安定區中榮里許中營27之1號,06-5934379,23.0950039826625,120.24355544313
龜丹社區活動中心,http://tnda.tainan.gov.tw/acthouse/actpage.asp?mainid=28A5BF15-8B95-4598-9BBC-14944EEF12F0,http://tnda.tainan.gov.tw/warehouse/C90000/丹活.JPG,楠西區,臺南市楠西區龜丹里龜丹5號,06-5744759,23.134595,120.49599
中洲中生聯合活動中心,http://tnda.tainan.gov.tw/acthouse/actpage.asp?mainid=F2F43387-B7EB-4462-991D-CA612882C4F8,http://tnda.tainan.gov.tw/warehouse/D20000/P1010162-1.JPG,仁德區,臺南市仁德區中洲里中洲274號,3661606,22.912112,120.259931
土庫里活動中心,http://tnda.tainan.gov.tw/acthouse/actpage.asp?mainid=66418F4A-DBC4-450C-8974-FF9FFB8C7858,http://tnda.tainan.gov.tw/warehouse/D20000/P1010146.JPG,仁德區,臺南市仁德區土庫里土庫三街39巷23弄11號,06-2071125,22.987774,120.26082
太子土庫聯合活動中心,http://tnda.tainan.gov.tw/acthouse/actpage.asp?mainid=04B900E6-5EE4-4DAE-B460-8C54F235C62C,http://tnda.tainan.gov.tw/warehouse/D20000/太子村.JPG,仁德區,臺南市仁德區太子里土庫路2號,06-2734282,22.991228,120.260404
廣山里活動中心,http://tnda.tainan.gov.tw/acthouse/actpage.asp?mainid=3B76C03D-2581-4630-9787-8D1A1061A52B,http://tnda.tainan.gov.tw/warehouse/C10000/將軍區廣山里活動中心外觀.JPG,將軍區,臺南市將軍區廣山里10鄰廣山97-6號,06-7942104,23.2203283320826,120.116172158718
嘉昌里活動中心,http://tnda.tainan.gov.tw/acthouse/actpage.asp?mainid=CA7011F2-F4CF-4C6E-8368-B1EAEAE823A3,http://tnda.tainan.gov.tw/warehouse/C10000/嘉昌里活動中心外觀照片.jpg,將軍區,臺南市將軍區嘉昌里11鄰北嘉98-5號,06-7942104,23.2112471916174,120.151641690731
三甲社區活動中心,http://tnda.tainan.gov.tw/acthouse/actpage.asp?mainid=74F2CAE4-4842-4EE4-87D5-89FC84507176,http://tnda.tainan.gov.tw/warehouse/D20000/P1010155.JPG,仁德區,臺南市仁德區三甲里三甲子11-17號,2662806,22.92818,120.243742
田厝社區活動中心,http://tnda.tainan.gov.tw/acthouse/actpage.asp?mainid=62FD6B01-B686-42D7-90D9-220BD763883A,http://tnda.tainan.gov.tw/warehouse/D20000/DSCF9434.JPG,仁德區,臺南市仁德區田厝里保安路二段481號,3661067,22.937127,120.243715
興北里活動中心,http://tnda.tainan.gov.tw/acthouse/actpage.asp?mainid=0B4CBE10-61A2-4F5F-BE35-B146F5E6DB58,http://tnda.tainan.gov.tw/warehouse/A30000/興北里.bmp,北區,臺南市北區公園路634巷75號,張美玉06-2517736,23.007659,120.212539
西橋里活動中心,http://tnda.tainan.gov.tw/acthouse/actpage.asp?mainid=FD6B516C-6CAA-48BB-9B48-1EE52A91A23A,http://tnda.tainan.gov.tw/warehouse/D60000/DSC05515.JPG,永康區,臺南市永康區中山南路43巷7號,2315639,23.013358,120.232007
復興里活動中心,http://tnda.tainan.gov.tw/acthouse/actpage.asp?mainid=BA851F80-4F3F-4D57-8191-FDBB506AB208,http://tnda.tainan.gov.tw/warehouse/D60000/CIMG9700.JPG,永康區,臺南市永康區復興路356巷13號,3124645,22.999049,120.241401
六合里活動中心,http://tnda.tainan.gov.tw/acthouse/actpage.asp?mainid=E65D1AA5-5A02-411A-AC82-55C257F70A1C,http://tnda.tainan.gov.tw/warehouse/D60000/六合里活動中心_外部相片_1.jpg,永康區,臺南市永康區中華二路358巷43號,2748505,23.009128,120.230207
知義社區活動中心,http://tnda.tainan.gov.tw/acthouse/actpage.asp?mainid=54C534C0-A478-417F-9053-2201AE58A66A,http://tnda.tainan.gov.tw/warehouse/C30000/知義里.JPG,新化區,臺南市新化區知義里171號,06-5906341,23.019432,120.334902
復國里活動中心,http://tnda.tainan.gov.tw/acthouse/actpage.asp?mainid=887F0A87-E30A-4B76-9BF1-74BEABE68749,http://tnda.tainan.gov.tw/warehouse/D60000/DSC05889.jpg,永康區,臺南市永康區復國二路46號,3116684,23.004073,120.247303
新樹里活動中心,http://tnda.tainan.gov.tw/acthouse/actpage.asp?mainid=1C703FF5-0C0F-49F2-AF11-0D61C0621427,http://tnda.tainan.gov.tw/warehouse/D60000/P1000138.JPG,永康區,臺南市永康區富強路二段98號,2315228,23.023128,120.274888
烏竹里活動中心,http://tnda.tainan.gov.tw/acthouse/actpage.asp?mainid=927DB044-B453-4709-A359-8CFD49CB4651,http://tnda.tainan.gov.tw/warehouse/D60000/P1040003(1).JPG,永康區,臺南市永康區烏竹北街85號,2312371,23.045161,120.263187
鹽行社教文化會館,http://tnda.tainan.gov.tw/acthouse/actpage.asp?mainid=D823CCC9-BE4C-46BA-BBBE-691044B623B5,http://tnda.tainan.gov.tw/warehouse/D60000/100_0663.jpg,永康區,台南市永康區正南八街1號,2531977,23.039292,120.23235
西灣里活動中心,http://tnda.tainan.gov.tw/acthouse/actpage.asp?mainid=5EAB8F2A-6FAA-4321-8C76-99DD207CD9DC,http://tnda.tainan.gov.tw/warehouse/D60000/100_0792.JPG,永康區,臺南市永康區永華路201巷12號,2711155,23.006151,120.259193
安康里活動中心,http://tnda.tainan.gov.tw/acthouse/actpage.asp?mainid=792E0322-64CA-45D4-9156-DFE824375F43,http://tnda.tainan.gov.tw/warehouse/D60000/安康-2.JPG,永康區,臺南市永康區中華西街122巷62號,2042366,23.015388,120.227476
崇義社區活動中心,http://tnda.tainan.gov.tw/acthouse/actpage.asp?mainid=D974D28A-F2D4-4665-9021-9F7E24905D37,http://tnda.tainan.gov.tw/warehouse/A40000/崇義(1).bmp,安平區,臺南市安平區安北路470號,3915524,22.9996308986786,120.15423002243
實踐社區活動中心,http://tnda.tainan.gov.tw/acthouse/actpage.asp?mainid=800EE80F-B011-4829-A5E6-0A22F165DCCA,http://tnda.tainan.gov.tw/warehouse/A30000/實踐社區活動中心.jpg,北區,臺南市北區大武街161號,0928681366,23.013356,120.215764
東興社區活動中心,http://tnda.tainan.gov.tw/acthouse/actpage.asp?mainid=4E978B5F-B80F-49B9-AF18-6036536CBEAD,http://tnda.tainan.gov.tw/warehouse/A30000/東興社區活動中心.jpg,北區,臺南市北區小東路401巷51號之1,06-2346426,22.999054,120.232359
大港里文康活動中心,http://tnda.tainan.gov.tw/acthouse/actpage.asp?mainid=C06CB65F-2E44-4C21-A29C-C0844DA73435,http://tnda.tainan.gov.tw/warehouse/A30000/大港里文康活動中心.jpg,北區,臺南市北區大興街226巷50號,06-2592114,23.012041,120.187659
重興社區活動中心,http://tnda.tainan.gov.tw/acthouse/actpage.asp?mainid=33F39379-7A72-459E-B1C6-43EC5F09756C,http://tnda.tainan.gov.tw/warehouse/A30000/重興社區活動中心.jpg,北區,臺南市北區東豐路451巷169號,06-2355119,23.003167,120.227945
大道社區活動中心,http://tnda.tainan.gov.tw/acthouse/actpage.asp?mainid=03B6A4C4-0EC3-4BEC-B7F4-3110F4D3FC7B,http://tnda.tainan.gov.tw/warehouse/A30000/大道社區活動中心.jpg,北區,臺南市北區和緯路1段96巷42號,06-2511512,23.011002,120.214424
昇平社區活動中心,http://tnda.tainan.gov.tw/acthouse/actpage.asp?mainid=371185EA-7B6C-4FFB-80AA-336F25F7D62A,http://tnda.tainan.gov.tw/warehouse/A30000/昇平社區活動中心.jpg,北區,臺南市北區長榮路五段452巷18號,06-2811148,23.013946,120.214197
正覺社區活動中心,http://tnda.tainan.gov.tw/acthouse/actpage.asp?mainid=3F0D9982-3745-4718-82E6-F5C5D62AFE10,http://tnda.tainan.gov.tw/warehouse/A30000/正覺社區活動中心.jpg,北區,臺南市公園路769巷20弄5號,06-2822827,23.0190827677797,120.214661
力行社區活動中心,http://tnda.tainan.gov.tw/acthouse/actpage.asp?mainid=5A6F75F7-797E-44C3-A792-462B4FD52B7D,http://tnda.tainan.gov.tw/warehouse/A30000/力行社區活動中心.jpg,北區,臺南市北區力行一街52號,06-2374702,23.0078229829191,120.227967981476
裕民社區活動中心,http://tnda.tainan.gov.tw/acthouse/actpage.asp?mainid=2530B322-AA79-46D1-A385-CA2DF513AF9E,http://tnda.tainan.gov.tw/warehouse/A30000/裕民社區活動中心.jpg,北區,臺南市北區臨安路2段93號,06-2594202,23.0029,120.197162
關聖社區活動中心,http://tnda.tainan.gov.tw/acthouse/actpage.asp?mainid=1EF5488E-7594-4299-9D36-A6B75822FB53,http://tnda.tainan.gov.tw/warehouse/A00000/untitled.jpg,東區,臺南市東區關聖里裕孝路118號,06-3315630,22.986755,120.243486
慶安社區活動中心,http://tnda.tainan.gov.tw/acthouse/actpage.asp?mainid=7DB4152C-026E-44B7-8328-DF87EDC7AB23,http://tnda.tainan.gov.tw/warehouse/B90000/慶安社區活動中心照片.jpg,西港區,台南市西港區慶安里新興街107巷32號,7952888,23.123517,120.201269
中興里活動中心,http://tnda.tainan.gov.tw/acthouse/actpage.asp?mainid=E999D3AB-FA3E-4536-8292-D451287E7854,http://tnda.tainan.gov.tw/warehouse/D60000/IMG_3899.jpg,永康區,臺南市永康區中興街40號,3128094,23.006591,120.240139
大丘里活動中心,http://tnda.tainan.gov.tw/acthouse/actpage.asp?mainid=D6722D43-E6D5-4A01-A50E-9DB76E38BFD4,http://tnda.tainan.gov.tw/warehouse/B40000/大丘里活動中心.JPG,六甲區,臺南市六甲區大丘里大丘園5號旁,6988386,23.219006,120.436831
甲南里活動中心,http://tnda.tainan.gov.tw/acthouse/actpage.asp?mainid=74EFFE56-E7FE-42EB-BFB7-FB25501BE55D,http://tnda.tainan.gov.tw/warehouse/B40000/100_1500.JPG,六甲區,臺南市六甲區甲南里珊瑚路17巷2號之1,6982030,23.226733,120.352432
仁和社區活動中心,http://tnda.tainan.gov.tw/acthouse/actpage.asp?mainid=1034F1D6-C824-4718-B462-44F3021D7799,http://tnda.tainan.gov.tw/warehouse/A00000/1(15).jpg,東區,臺南市東區仁和路113巷39號,06-2680622-312,22.971139,120.23431
東光社區活動中心,http://tnda.tainan.gov.tw/acthouse/actpage.asp?mainid=F3C983E4-1839-4B35-AC2B-FFE22735CDD8,http://tnda.tainan.gov.tw/warehouse/A00000/活動中心側面(5).JPG,東區,臺南市東區東光路1段39-1號,06-2343064,22.991606,120.230856
龍山社區活動中心,http://tnda.tainan.gov.tw/acthouse/actpage.asp?mainid=B1263C14-FEAB-4678-BD51-A1A4C66EF2C4,http://tnda.tainan.gov.tw/warehouse/A00000/1(13).jpg,東區,臺南市東區林森路1段311號,06-2352746,22.983756,120.220385
玉皇里活動中心,http://tnda.tainan.gov.tw/acthouse/actpage.asp?mainid=3F0E8BE3-4BC5-4EEC-BACE-690571377175,http://tnda.tainan.gov.tw/warehouse/A30000/玉皇里.bmp,北區,台南市佑民街45號,2259291,22.999163,120.205973
長德里活動中心,http://tnda.tainan.gov.tw/acthouse/actpage.asp?mainid=6E213773-CD75-4E72-9E2A-487F3CBBE9D0,http://tnda.tainan.gov.tw/warehouse/A30000/女廁1(1).JPG,北區,臺南市北區長德街101號,2288742,23.003185,120.205723
仁愛里活動中心,http://tnda.tainan.gov.tw/acthouse/actpage.asp?mainid=472B6026-CF1E-4B72-9EEC-926C55DACCE6,http://tnda.tainan.gov.tw/warehouse/A30000/仁愛里.bmp,北區,臺南市北區東豐路227巷24弄17號,0925526263,23.004347,120.221487
成德里活動中心,http://tnda.tainan.gov.tw/acthouse/actpage.asp?mainid=C2CB0BB5-A94B-40FD-96C7-20B4384FFE71,http://tnda.tainan.gov.tw/warehouse/A30000/成德里.bmp,北區,台南市育德三街42號,王明宇  06-2815182,23.015492,120.201573
延平六甲里聯合活動中心,http://tnda.tainan.gov.tw/acthouse/actpage.asp?mainid=98735C0D-CB45-4A35-BF64-0114857B13CB,http://tnda.tainan.gov.tw/warehouse/A30000/延平六甲里.bmp,北區,台南市公園路七五八巷四三號,0922-279-483,23.010507,120.212228
光武里活動中心,http://tnda.tainan.gov.tw/acthouse/actpage.asp?mainid=AD2C92D4-90C8-4CD5-96B5-C71367160A24,http://tnda.tainan.gov.tw/warehouse/A30000/1樓.JPG,北區,台南市北門路二段591號,2526799,23.011989,120.216422
開元元寶里活動中心,http://tnda.tainan.gov.tw/acthouse/actpage.asp?mainid=1D243AE9-3297-4AFB-86CB-E5244935AD74,http://tnda.tainan.gov.tw/warehouse/A30000/開元元寶里.bmp,北區,臺南市北園街114巷11號,276-1806,23.009533,120.22316
長榮里活動中心,http://tnda.tainan.gov.tw/acthouse/actpage.asp?mainid=D7E06966-13CF-45DF-AEB9-7D0597151CD6,http://tnda.tainan.gov.tw/warehouse/A30000/長榮里活動中心.bmp,北區,臺南市長榮路5段41巷46號,0921021731,23.010126,120.220739
國平里活動中心,http://tnda.tainan.gov.tw/acthouse/actpage.asp?mainid=118B803C-884F-43C9-A61A-ADE4A7860443,http://tnda.tainan.gov.tw/warehouse/A40000/untitled(4).bmp,安平區,台南市建平七街409號,2971950,22.988925,120.17885
文平里活動中心,http://tnda.tainan.gov.tw/acthouse/actpage.asp?mainid=D23ED054-13A9-450B-990D-0FF35D6EC182,http://tnda.tainan.gov.tw/warehouse/A40000/DSCF2370(1).JPG,安平區,台南市安平區中華西路二段1巷1號,06-2998311,22.986704,120.185427
金城里活動中心,http://tnda.tainan.gov.tw/acthouse/actpage.asp?mainid=39FA9EA1-CDC5-4AA3-8712-89248AB84196,http://tnda.tainan.gov.tw/warehouse/A40000/照片.bmp,安平區,台南市安平區運河路43號之1,2218729,22.9987692173131,120.161890411377
華平里活動中心,http://tnda.tainan.gov.tw/acthouse/actpage.asp?mainid=C542646C-7A6C-4532-8741-48CF795AB025,http://tnda.tainan.gov.tw/warehouse/A40000/untitled(3).bmp,安平區,台南市安平區育平九街195號,06-2999759,22.995026,120.172028
中沙社區民眾活動中心,http://tnda.tainan.gov.tw/acthouse/actpage.asp?mainid=D73E16FE-5440-438D-BAA5-A13DFEE769EB,http://tnda.tainan.gov.tw/warehouse/C60000/中沙.JPG,安定區,臺南市安定區中沙里115號,06-5931281,23.0786077501846,120.209283764557
海寮社區活動中心,http://tnda.tainan.gov.tw/acthouse/actpage.asp?mainid=A2F3416F-3B94-4913-B715-8A5467959F4E,http://tnda.tainan.gov.tw/warehouse/C60000/P1040513.JPG,安定區,臺南市安定區海寮里15-3號,06-5931241,23.0965287283487,120.211049938202
大學東寧社區聯合活動中心,http://tnda.tainan.gov.tw/acthouse/actpage.asp?mainid=E259CC08-E8B6-4AE3-B11B-F8DDAA2E4F11,http://tnda.tainan.gov.tw/warehouse/A00000/0(7).jpg,東區,臺南市東區林森路2段252號,06-2005760,22.990799,120.224447
賢北里文康活動中心,http://tnda.tainan.gov.tw/acthouse/actpage.asp?mainid=763EE08C-B1DA-4E61-BFB5-E1104FF63A1B,http://tnda.tainan.gov.tw/warehouse/A30000/賢北里.bmp,北區,台南市北區賢北街108號,2801581,23.00923,120.182843
和順里活動中心,http://tnda.tainan.gov.tw/acthouse/actpage.asp?mainid=F3CD62F8-5591-4785-B913-B8924C14E56E,http://tnda.tainan.gov.tw/warehouse/A30000/1236972_10200660311536920_1295000816_n.jpg,北區,台南市公園南路406號,0932705431,23.003833,120.201242
國興里活動中心,http://tnda.tainan.gov.tw/acthouse/actpage.asp?mainid=A386ED87-BC6A-4CF1-9303-B730C812D5CD,http://tnda.tainan.gov.tw/warehouse/A30000/國興里.bmp,北區,臺南市北區南園街101巷71弄11號,06-2367587,23.009171,120.226692
小東社區活動中心,http://tnda.tainan.gov.tw/acthouse/actpage.asp?mainid=E4091138-8CF9-4FEC-8F11-91CDED895D70,http://tnda.tainan.gov.tw/warehouse/A00000/0(9).jpg,東區,臺南市東區小東路198巷24弄52號,06-2343586,22.999106,120.22697
港尾社區活動中心,http://tnda.tainan.gov.tw/acthouse/actpage.asp?mainid=893C172D-669A-424A-A015-90B0FA05F397,http://tnda.tainan.gov.tw/warehouse/C60000/DSC_0227.JPG,安定區,臺南市安定區港尾里港子尾74-11號,06-5921795,23.1040239252933,120.233773612976
國姓里活動中心,http://tnda.tainan.gov.tw/acthouse/actpage.asp?mainid=BA57AF43-5245-4429-A597-EAEBEA277E02,http://tnda.tainan.gov.tw/warehouse/A30000/國姓里.bmp,北區,臺南市公園路433巷15號一樓,06-2513827,23.007771,120.209017
小康里文康活動中心,http://tnda.tainan.gov.tw/acthouse/actpage.asp?mainid=00CD1C54-2F47-4460-8EA9-BF78F64B60B8,http://tnda.tainan.gov.tw/warehouse/A30000/小康里.bmp,北區,台南市北區實踐街17之1號,2519162,23.014244,120.217796
大坑社區活動中心,http://tnda.tainan.gov.tw/acthouse/actpage.asp?mainid=B078A75D-7164-44DB-83E3-0BB5FF68D13D,http://tnda.tainan.gov.tw/warehouse/C30000/大坑里.JPG,新化區,臺南市新化區大坑里大坑尾182號,06-5802868,23.012628,120.385707
唪口里活動中心,http://tnda.tainan.gov.tw/acthouse/actpage.asp?mainid=B7C4EA73-E410-415B-A130-71140588835A,http://tnda.tainan.gov.tw/warehouse/C30000/唪口里.JPG,新化區,臺南市新化區唪口里唪口106-3號,06-5980187,23.040855,120.296194
協興里活動中心,http://tnda.tainan.gov.tw/acthouse/actpage.asp?mainid=FB84961B-7641-4CA4-932F-1B695E3B9B03,http://tnda.tainan.gov.tw/warehouse/C30000/協興里.JPG,新化區,臺南市新化區協興里太平街125號,06-5984295,23.038175,120.300892
豐榮里活動中心,http://tnda.tainan.gov.tw/acthouse/actpage.asp?mainid=3D18FFCC-EBAB-44B8-B3FB-4E229862506E,http://tnda.tainan.gov.tw/warehouse/C30000/豐榮里.JPG,新化區,臺南市新化區豐榮里洋子164號,06-5988850,23.03378,120.298267
全興里活動中心,http://tnda.tainan.gov.tw/acthouse/actpage.asp?mainid=C0613E5B-C951-4238-AF5E-0FA757F545BF,http://tnda.tainan.gov.tw/warehouse/C30000/全興里.JPG,新化區,臺南市新化區全興里竹子腳73號,06-5970888,23.030906,120.292876
新嘉里活動中心,http://tnda.tainan.gov.tw/acthouse/actpage.asp?mainid=4F47357A-2715-4B75-87E6-F94F7D193B0A,http://tnda.tainan.gov.tw/warehouse/B00000/DSCF1514.JPG,後壁區,臺南市後壁區新嘉里16鄰172號,6623766,23.3712200819986,120.310528116455
嘉田嘉民里聯合活動中心,http://tnda.tainan.gov.tw/acthouse/actpage.asp?mainid=4E986965-4E3D-48FB-BE1A-047B4DAB5C48,http://tnda.tainan.gov.tw/warehouse/B00000/IMG_0677.JPG,後壁區,臺南市後壁區嘉田里5鄰46-28號,6881965,23.3860747678122,120.382582865021
土溝里活動中心,http://tnda.tainan.gov.tw/acthouse/actpage.asp?mainid=ACB7150A-73B5-42FC-8183-6B1878ADA800,http://tnda.tainan.gov.tw/warehouse/B00000/100_1047.JPG,後壁區,臺南市後壁區土溝里7鄰56-18號,6871921,23.3732988963865,120.386616419357
平安里活動中心,http://tnda.tainan.gov.tw/acthouse/actpage.asp?mainid=E89B225B-8D65-416A-8D55-1BC87D2118EE,http://tnda.tainan.gov.tw/warehouse/A40000/P1050179.JPG,安平區,台南市安平區民權路四段325號,06-2258366,23.00243,120.16549
慈福里活動中心,http://tnda.tainan.gov.tw/acthouse/actpage.asp?mainid=5DBA5441-77A3-4757-8FD2-F389C1209375,http://tnda.tainan.gov.tw/warehouse/B80000/里活動中心外觀.jpg,學甲區,臺南市學甲區慈福里民生路1號,0912793210,23.2302008930983,120.183571110739
士林里活動中心,http://tnda.tainan.gov.tw/acthouse/actpage.asp?mainid=7657EF82-C889-4E7E-B8C0-A64ACC1AC682,http://tnda.tainan.gov.tw/warehouse/A90000/DSC01078.JPG,柳營區,台南市柳營區士林里博愛街18號,06-6222104,22.9935274095941,120.455603027344
新吉庄活動中心,http://tnda.tainan.gov.tw/acthouse/actpage.asp?mainid=8A6251E9-65E7-4069-894F-C2781F0613BE,http://tnda.tainan.gov.tw/warehouse/A90000/DSC01127.JPG,柳營區,台南市柳營區旭山里新吉庄16-30號,06-6233733,186223.841,2573918.369
中營地區民眾活動中心,http://tnda.tainan.gov.tw/acthouse/actpage.asp?mainid=2C027017-CC37-4D41-931C-35E2E0024B8C,http://tnda.tainan.gov.tw/warehouse/B30000/正面(1).JPG,下營區,臺南市下營區茅港里5鄰茅港尾81之1號,0928327733,23.219289,120.2840307
八翁里集會所,http://tnda.tainan.gov.tw/acthouse/actpage.asp?mainid=263DBCA1-2474-48A9-A506-5FC949314B7B,http://tnda.tainan.gov.tw/warehouse/A90000/DSC01079.JPG,柳營區,台南市柳營區八翁里8鄰70-1號,06-6220770,177201.134,2574889.534
港仔宮社區活動中心,http://tnda.tainan.gov.tw/acthouse/actpage.asp?mainid=7E54D425-A2C4-4D10-8871-D7EA4AAEF41D,http://tnda.tainan.gov.tw/warehouse/A40000/港仔.jpg,安平區,臺南市安平區安平路790號,2206627,23.000349,120.161366
北灣里活動中心,http://tnda.tainan.gov.tw/acthouse/actpage.asp?mainid=67CAC13D-185C-4D06-87A0-F3E83E91E002,http://tnda.tainan.gov.tw/warehouse/D60000/100_0796.JPG,永康區,臺南市永康區文賢街332號,2714453,23.012141,120.267424
勝利里活動中心,http://tnda.tainan.gov.tw/acthouse/actpage.asp?mainid=7B558D9C-2159-4851-A0F7-11FF31239826,http://tnda.tainan.gov.tw/warehouse/D60000/100_0768.JPG,永康區,臺南市永康區勝華街37巷39號,3126777,23.005387,120.233964
東灣里活動中心,http://tnda.tainan.gov.tw/acthouse/actpage.asp?mainid=CB8DC4DB-3C2E-4564-B73D-7C765E0B5E98,http://tnda.tainan.gov.tw/warehouse/D60000/SANY0116.JPG,永康區,臺南市永康區民族路291號,2728771,23.005405,120.269078
大農里活動中心,http://tnda.tainan.gov.tw/acthouse/actpage.asp?mainid=331FDA3A-D055-4017-9A80-227855506B78,http://tnda.tainan.gov.tw/warehouse/A90000/DSC01117.JPG,柳營區,台南市柳營區大農里義士路一段450號,06-6231894,185214,2575906
中埕里活動中心,http://tnda.tainan.gov.tw/acthouse/actpage.asp?mainid=D9989987-91D5-4A49-A131-99F951CC4D83,http://tnda.tainan.gov.tw/warehouse/A90000/DSC01163.JPG,柳營區,台南市柳營區中埕里360號,06-6222961,23.268833,120.319237
王爺里活動中心,http://tnda.tainan.gov.tw/acthouse/actpage.asp?mainid=EC1C0AA8-2D1A-4958-9766-B7FFA26D6D98,http://tnda.tainan.gov.tw/warehouse/B40000/DSC00413.JPG,六甲區,臺南市六甲區王爺里番子坑27號北邊,6983591,23.225488,120.400007
